<?xml version="1.0" encoding="UTF-8"?>
<kml xmlns="http://www.opengis.net/kml/2.2"><Document>
<name>PRESOL prospectos y zonas calientes 2026-09</name>

<Style id="prioA"><IconStyle><scale>1.1</scale><Icon><href>http://maps.google.com/mapfiles/kml/paddle/red-circle.png</href></Icon></IconStyle></Style>
<Style id="prioB"><IconStyle><scale>1.0</scale><Icon><href>http://maps.google.com/mapfiles/kml/paddle/orange-circle.png</href></Icon></IconStyle></Style>
<Style id="prioC"><IconStyle><scale>.9</scale><Icon><href>http://maps.google.com/mapfiles/kml/paddle/blu-circle.png</href></Icon></IconStyle></Style>
<Style id="hot"><IconStyle><scale>1.25</scale><Icon><href>http://maps.google.com/mapfiles/kml/paddle/ylw-stars.png</href></Icon></IconStyle></Style>
<Style id="route"><LineStyle><color>ff0e7490</color><width>4</width></LineStyle></Style>

<Placemark><name>ESISA</name><styleUrl>#prioA</styleUrl><description><![CDATA[Corredor: Base Río Tercero<br/>Zona: Río Tercero<br/>Sector: Viviendas/módulos industrializados<br/>Tel: Portería parque: 03571 565662; mail esisaservicios@gmail.com<br/>Encaje: Módulos habitacionales: planchada + malacate + descarga.<br/>Gancho: Socio natural para entregas de módulos a obra.<br/>Fuente: Parque Industrial Río Tercero<br/>Google Maps: https://www.google.com/maps/search/?api=1&query=-32.182000,-64.107000]]></description><Point><coordinates>-64.107,-32.182,0</coordinates></Point></Placemark>
<Placemark><name>Hormicor</name><styleUrl>#prioA</styleUrl><description><![CDATA[Corredor: Base Río Tercero<br/>Zona: Río Tercero<br/>Sector: Hormigón elaborado<br/>Tel: 03571 500888 / 03571 510066<br/>Encaje: Movimiento de equipos, plantas móviles, bombas, áridos y premoldeados.<br/>Gancho: Ofrecer respaldo para picos de obra y traslados de equipos.<br/>Fuente: hormigonelaborado.com / Hormicor<br/>Google Maps: https://www.google.com/maps/search/?api=1&query=-32.178000,-64.111000]]></description><Point><coordinates>-64.111,-32.178,0</coordinates></Point></Placemark>
<Placemark><name>IMBAL S.A.</name><styleUrl>#prioA</styleUrl><description><![CDATA[Corredor: Base Río Tercero<br/>Zona: Río Tercero<br/>Sector: Estructuras metálicas / montaje<br/>Tel: A relevar en terreno<br/>Encaje: Plataforma + hidrogrúa para estructuras y obras metálicas.<br/>Gancho: Fabrican y montan; pedir responsable de despacho/montaje.<br/>Fuente: Parque Industrial Río Tercero / LinkedIn comercial<br/>Google Maps: https://www.google.com/maps/search/?api=1&query=-32.180000,-64.106000]]></description><Point><coordinates>-64.106,-32.18,0</coordinates></Point></Placemark>
<Placemark><name>Metalúrgica Novaretti</name><styleUrl>#prioA</styleUrl><description><![CDATA[Corredor: Base Río Tercero<br/>Zona: Río Tercero<br/>Sector: Recipientes y equipos metalmecánicos<br/>Tel: 03571 414282 / 03571 606930<br/>Encaje: Piezas de ingeniería, tanques y recipientes en plataforma 20 tn.<br/>Gancho: Cotizar despacho recurrente a plantas/obras.<br/>Fuente: novaretti.com.ar<br/>Google Maps: https://www.google.com/maps/search/?api=1&query=-32.169000,-64.117000]]></description><Point><coordinates>-64.117,-32.169,0</coordinates></Point></Placemark>
<Placemark><name>Tres Eme S.A.</name><styleUrl>#prioA</styleUrl><description><![CDATA[Corredor: Base Río Tercero<br/>Zona: Río Tercero<br/>Sector: Silos y mecanización<br/>Tel: 03571 432190 / 03571 637720<br/>Encaje: Traslado de silos, piezas, norias y estructuras.<br/>Gancho: Ofrecer flete + descarga/posicionamiento en obra rural.<br/>Fuente: parqueindustrial.riotercero.gob.ar/empresa/Tres-Eme-S.A.<br/>Google Maps: https://www.google.com/maps/search/?api=1&query=-32.181000,-64.103000]]></description><Point><coordinates>-64.103,-32.181,0</coordinates></Point></Placemark>
<Placemark><name>Vial del Centro</name><styleUrl>#prioA</styleUrl><description><![CDATA[Corredor: Base Río Tercero<br/>Zona: Río Tercero<br/>Sector: Obras de infraestructura vial<br/>Tel: 0351 6411413<br/>Encaje: Transporte de equipos viales y módulos de obrador.<br/>Gancho: Pedir próximo movimiento de maquinaria entre frentes.<br/>Fuente: Parque Industrial Río Tercero<br/>Google Maps: https://www.google.com/maps/search/?api=1&query=-32.183000,-64.101000]]></description><Point><coordinates>-64.101,-32.183,0</coordinates></Point></Placemark>
<Placemark><name>Atanor / Albaugh</name><styleUrl>#prioB</styleUrl><description><![CDATA[Corredor: Base Río Tercero<br/>Zona: Río Tercero<br/>Sector: Química / agroquímicos<br/>Tel: A relevar<br/>Encaje: Piezas industriales, mantenimiento, repuestos pesados.<br/>Gancho: No vender por puerta fría baja; pedir compras/mantenimiento.<br/>Fuente: Albaugh / noticias sectoriales<br/>Google Maps: https://www.google.com/maps/search/?api=1&query=-32.173000,-64.110000]]></description><Point><coordinates>-64.11,-32.173,0</coordinates></Point></Placemark>
<Placemark><name>Charrúa Implementos Agrícolas</name><styleUrl>#prioB</styleUrl><description><![CDATA[Corredor: Base Río Tercero<br/>Zona: Río Tercero<br/>Sector: Implementos agrícolas<br/>Tel: 03571 619149 / 03571 503663 (a confirmar)<br/>Encaje: Despacho de implementos y equipos agrícolas.<br/>Gancho: Pedir frecuencia de entregas a concesionarios/campos.<br/>Fuente: Web/Facebook Charrúa<br/>Google Maps: https://www.google.com/maps/search/?api=1&query=-32.168609,-64.118792]]></description><Point><coordinates>-64.11879230268927,-32.1686086636505,0</coordinates></Point></Placemark>
<Placemark><name>Fábrica Militar Río Tercero</name><styleUrl>#prioB</styleUrl><description><![CDATA[Corredor: Base Río Tercero<br/>Zona: Río Tercero<br/>Sector: Industria estatal / metalmecánica pesada<br/>Tel: A relevar<br/>Encaje: Piezas de ingeniería, vagones, estructuras y equipamiento.<br/>Gancho: Entrar por proveedores/subcontratistas antes que compra directa estatal.<br/>Fuente: Fabricaciones Militares / informes previos<br/>Google Maps: https://www.google.com/maps/search/?api=1&query=-32.181966,-64.113216]]></description><Point><coordinates>-64.11321559831528,-32.18196575228283,0</coordinates></Point></Placemark>
<Placemark><name>HIDROSERVIS</name><styleUrl>#prioB</styleUrl><description><![CDATA[Corredor: Base Río Tercero<br/>Zona: Río Tercero<br/>Sector: Cilindros hidráulicos<br/>Tel: Portería parque: 03571 565662<br/>Encaje: Traslado de cilindros/equipos hidráulicos y servicios a clientes.<br/>Gancho: Ofrecer servicio de retiro/entrega de equipos pesados.<br/>Fuente: Parque Industrial Río Tercero<br/>Google Maps: https://www.google.com/maps/search/?api=1&query=-32.181800,-64.104800]]></description><Point><coordinates>-64.1048,-32.1818,0</coordinates></Point></Placemark>
<Placemark><name>Hidrobull</name><styleUrl>#prioB</styleUrl><description><![CDATA[Corredor: Base Río Tercero<br/>Zona: Río Tercero<br/>Sector: Accesorios para minicargadoras<br/>Tel: 03571 549612<br/>Encaje: Despacho de accesorios viales/agrícolas, soporte a clientes.<br/>Gancho: Preguntar si entregan accesorios con terceros.<br/>Fuente: Facebook Hidrobull<br/>Google Maps: https://www.google.com/maps/search/?api=1&query=-32.171500,-64.116500]]></description><Point><coordinates>-64.1165,-32.1715,0</coordinates></Point></Placemark>
<Placemark><name>Hormilas S.A.</name><styleUrl>#prioB</styleUrl><description><![CDATA[Corredor: Base Río Tercero<br/>Zona: Río Tercero<br/>Sector: Hormigón elaborado<br/>Tel: 03571 573231 (a confirmar)<br/>Encaje: Materiales, equipos y traslados de apoyo a obra.<br/>Gancho: Visita breve: detectar si tercerizan fletes de planta.<br/>Fuente: Parque Industrial Río Tercero / búsqueda web<br/>Google Maps: https://www.google.com/maps/search/?api=1&query=-32.163876,-64.106999]]></description><Point><coordinates>-64.1069992435664,-32.163876436586655,0</coordinates></Point></Placemark>
<Placemark><name>MetalMec S.R.L.</name><styleUrl>#prioB</styleUrl><description><![CDATA[Corredor: Base Río Tercero<br/>Zona: Río Tercero<br/>Sector: Implementos y accesorios<br/>Tel: 03571 681577 / 03571 506656<br/>Encaje: Despacho de equipos y accesorios; plataforma o carga general.<br/>Gancho: Ofrecer retiro/entrega con monitoreo GPS.<br/>Fuente: Facebook MetalMec<br/>Google Maps: https://www.google.com/maps/search/?api=1&query=-32.170500,-64.118500]]></description><Point><coordinates>-64.1185,-32.1705,0</coordinates></Point></Placemark>
<Placemark><name>Oleos San José S.R.L.</name><styleUrl>#prioB</styleUrl><description><![CDATA[Corredor: Base Río Tercero<br/>Zona: Río Tercero<br/>Sector: Extrusado/aceite de soja<br/>Tel: 03571 692471 / 03571 640630<br/>Encaje: Movimiento de equipos, repuestos, cargas industriales.<br/>Gancho: Entrar por mantenimiento/planta.<br/>Fuente: Parque Industrial Río Tercero<br/>Google Maps: https://www.google.com/maps/search/?api=1&query=-32.182600,-64.102500]]></description><Point><coordinates>-64.1025,-32.1826,0</coordinates></Point></Placemark>
<Placemark><name>Grupo AVO S.A.</name><styleUrl>#prioC</styleUrl><description><![CDATA[Corredor: Base Río Tercero<br/>Zona: Río Tercero<br/>Sector: Aceite de soja / balanceados<br/>Tel: Portería parque: 03571 565662<br/>Encaje: Cargas industriales y mantenimiento.<br/>Gancho: Visitar si queda en ruta del parque.<br/>Fuente: Parque Industrial Río Tercero<br/>Google Maps: https://www.google.com/maps/search/?api=1&query=-32.175431,-64.127787]]></description><Point><coordinates>-64.12778730854218,-32.17543107448734,0</coordinates></Point></Placemark>
<Placemark><name>Áridos S.A.</name><styleUrl>#prioC</styleUrl><description><![CDATA[Corredor: Base Río Tercero<br/>Zona: Río Tercero<br/>Sector: Áridos / cantera<br/>Tel: A relevar<br/>Encaje: Áridos y movimiento de equipos de cantera.<br/>Gancho: Solo vender si se confirma caja volcadora o servicio tercerizable.<br/>Fuente: EMIS / Instagram @aridos.sa<br/>Google Maps: https://www.google.com/maps/search/?api=1&query=-32.175149,-64.110626]]></description><Point><coordinates>-64.11062643421675,-32.17514919843339,0</coordinates></Point></Placemark>
<Placemark><name>Cotagro — Alcira Gigena</name><styleUrl>#prioA</styleUrl><description><![CDATA[Corredor: Río Cuarto / RN36 sur<br/>Zona: Alcira Gigena<br/>Sector: Cooperativa agroindustrial / maní / acopio<br/>Tel: 358 4393127 / 358 4125695 / 0358 4933333<br/>Encaje: Silos, maquinaria agro, plantas, módulos y materiales.<br/>Gancho: Cotagro concentra 4 puntos del corredor; pedir compras/logística.<br/>Fuente: Facebook Cotagro / cotagroweb.com.ar<br/>Google Maps: https://www.google.com/maps/search/?api=1&query=-32.755782,-64.339199]]></description><Point><coordinates>-64.339199,-32.755782,0</coordinates></Point></Placemark>
<Placemark><name>Cooperativa Alba de Gigena</name><styleUrl>#prioB</styleUrl><description><![CDATA[Corredor: Río Cuarto / RN36 sur<br/>Zona: Alcira Gigena<br/>Sector: Cooperativa agropecuaria<br/>Tel: 0358 4960151<br/>Encaje: Movimientos de planta, balanzas, maquinaria y materiales.<br/>Gancho: Visita de diagnóstico; posible derivación a productores.<br/>Fuente: DNB / fuentes públicas<br/>Google Maps: https://www.google.com/maps/search/?api=1&query=-32.757500,-64.335000]]></description><Point><coordinates>-64.335,-32.7575,0</coordinates></Point></Placemark>
<Placemark><name>3C Biogás S.A.</name><styleUrl>#prioC</styleUrl><description><![CDATA[Corredor: Río Cuarto / RN36 sur<br/>Zona: Alcira Gigena<br/>Sector: Energía / biogás<br/>Tel: A relevar<br/>Encaje: Equipos industriales, mantenimiento, estructuras.<br/>Gancho: Prospecto técnico; validar contacto local en terreno.<br/>Fuente: UNRC / investigación web<br/>Google Maps: https://www.google.com/maps/search/?api=1&query=-32.757000,-64.332000]]></description><Point><coordinates>-64.332,-32.757,0</coordinates></Point></Placemark>
<Placemark><name>Doble A Servicios Metalúrgicos</name><styleUrl>#prioB</styleUrl><description><![CDATA[Corredor: Río Cuarto / RN36 sur<br/>Zona: Berrotarán<br/>Sector: Zinguería / estructuras metálicas<br/>Tel: 358 4185826<br/>Encaje: Traslado de chapas, estructuras, tinglados.<br/>Gancho: Visitar y detectar obras/instalaciones próximas.<br/>Fuente: Facebook Doble A Servicios Metalúrgicos<br/>Google Maps: https://www.google.com/maps/search/?api=1&query=-32.452000,-64.388000]]></description><Point><coordinates>-64.388,-32.452,0</coordinates></Point></Placemark>
<Placemark><name>Canteras/corralones locales</name><styleUrl>#prioC</styleUrl><description><![CDATA[Corredor: Río Cuarto / RN36 sur<br/>Zona: Berrotarán<br/>Sector: Áridos / materiales<br/>Tel: A relevar<br/>Encaje: Áridos, premoldeados, equipos de cantera.<br/>Gancho: Relevamiento presencial: la web no muestra nombres confiables.<br/>Fuente: Relevamiento recomendado<br/>Google Maps: https://www.google.com/maps/search/?api=1&query=-32.452000,-64.384000]]></description><Point><coordinates>-64.384,-32.452,0</coordinates></Point></Placemark>
<Placemark><name>Cotagro — Sucursal Chucul</name><styleUrl>#prioB</styleUrl><description><![CDATA[Corredor: Río Cuarto / RN36 sur<br/>Zona: Chucul<br/>Sector: Acopio agropecuario<br/>Tel: 0358 4912008 / 0358 4933333<br/>Encaje: Maquinaria/agroinsumos; derivación hacia Cotagro central.<br/>Gancho: Punto de paso; no dedicar medio día.<br/>Fuente: Maptons / Cotagro<br/>Google Maps: https://www.google.com/maps/search/?api=1&query=-33.016000,-64.208000]]></description><Point><coordinates>-64.208,-33.016,0</coordinates></Point></Placemark>
<Placemark><name>AGD — Planta de Acopio Corralito</name><styleUrl>#prioA</styleUrl><description><![CDATA[Corredor: Río Cuarto / RN36 sur<br/>Zona: Corralito<br/>Sector: Acopio agroindustrial<br/>Tel: 03571 492144 / 492172 / 492228<br/>Encaje: Maquinaria agrícola, silos, balanzas, equipos de planta.<br/>Gancho: Acopio AGD; pedir operaciones/mantenimiento.<br/>Fuente: agd.com.ar/es/corralito-acopio<br/>Google Maps: https://www.google.com/maps/search/?api=1&query=-32.022500,-64.191000]]></description><Point><coordinates>-64.191,-32.0225,0</coordinates></Point></Placemark>
<Placemark><name>Trisoil S.A.</name><styleUrl>#prioB</styleUrl><description><![CDATA[Corredor: Río Cuarto / RN36 sur<br/>Zona: Corralito<br/>Sector: Alimentos balanceados / aceite<br/>Tel: 03571 502525 / 502526<br/>Encaje: Cargas industriales y equipos de planta.<br/>Gancho: Ofrecer fletes de repuestos/equipos y cargas especiales.<br/>Fuente: trisoil.com.ar<br/>Google Maps: https://www.google.com/maps/search/?api=1&query=-32.030000,-64.183000]]></description><Point><coordinates>-64.183,-32.03,0</coordinates></Point></Placemark>
<Placemark><name>CAGLE — Cooperativa Agrícola de Elena</name><styleUrl>#prioA</styleUrl><description><![CDATA[Corredor: Río Cuarto / RN36 sur<br/>Zona: Elena<br/>Sector: Acopio / agro / estación de servicios<br/>Tel: 3584 881118<br/>Encaje: Nueva planta/acopio, maquinaria agro, módulos, materiales.<br/>Gancho: Obras recientes + nueva planta futura: transporte de equipos.<br/>Fuente: cagle.com.ar<br/>Google Maps: https://www.google.com/maps/search/?api=1&query=-32.569649,-64.392432]]></description><Point><coordinates>-64.392432,-32.569649,0</coordinates></Point></Placemark>
<Placemark><name>Gliestore S.A.</name><styleUrl>#prioB</styleUrl><description><![CDATA[Corredor: Río Cuarto / RN36 sur<br/>Zona: Elena<br/>Sector: Soja / alimentos / exportación<br/>Tel: 0358 4641548 / 9358 4024598<br/>Encaje: Cargas industriales, maquinaria, repuestos y embalajes pesados.<br/>Gancho: Empresa exportadora; preguntar por logística de equipos y planta.<br/>Fuente: Exportadores de Córdoba<br/>Google Maps: https://www.google.com/maps/search/?api=1&query=-32.571800,-64.390000]]></description><Point><coordinates>-64.39,-32.5718,0</coordinates></Point></Placemark>
<Placemark><name>Parque Industrial y Logístico Las Higueras</name><styleUrl>#prioB</styleUrl><description><![CDATA[Corredor: Río Cuarto / RN36 sur<br/>Zona: Las Higueras<br/>Sector: Radicaciones / logística<br/>Tel: A relevar vía municipio/parque<br/>Encaje: Mudanzas industriales, estructuras, maquinaria de nuevas plantas.<br/>Gancho: Pedir listado de empresas radicadas y obras en apertura de calles.<br/>Fuente: argentina.gob.ar / La Voz<br/>Google Maps: https://www.google.com/maps/search/?api=1&query=-33.093000,-64.288000]]></description><Point><coordinates>-64.288,-33.093,0</coordinates></Point></Placemark>
<Placemark><name>AFEMA S.A.</name><styleUrl>#prioA</styleUrl><description><![CDATA[Corredor: Río Cuarto / RN36 sur<br/>Zona: Río Cuarto<br/>Sector: Constructora vial<br/>Tel: 0351 7371862<br/>Encaje: Movimiento urgente de equipos viales por Circunvalación.<br/>Gancho: Obras viales activas; pedir jefe de obra/logística.<br/>Fuente: Facebook AFEMA<br/>Google Maps: https://www.google.com/maps/search/?api=1&query=-33.105000,-64.335000]]></description><Point><coordinates>-64.335,-33.105,0</coordinates></Point></Placemark>
<Placemark><name>BIDESA Obras Viales y Civiles</name><styleUrl>#prioA</styleUrl><description><![CDATA[Corredor: Río Cuarto / RN36 sur<br/>Zona: Río Cuarto<br/>Sector: Obra vial / UTE<br/>Tel: A relevar en obrador<br/>Encaje: Transporte de máquinas, módulos de obrador, estructuras.<br/>Gancho: Si está en obra, entrar por obrador; teléfono no público.<br/>Fuente: Construar / Boletín Oficial<br/>Google Maps: https://www.google.com/maps/search/?api=1&query=-33.108000,-64.327000]]></description><Point><coordinates>-64.327,-33.108,0</coordinates></Point></Placemark>
<Placemark><name>Canteras Bringas</name><styleUrl>#prioA</styleUrl><description><![CDATA[Corredor: Río Cuarto / RN36 sur<br/>Zona: Río Cuarto<br/>Sector: Áridos / hormigón / obra pública<br/>Tel: 0358 154906010<br/>Encaje: Transporte de máquinas, plantas móviles, áridos y premoldeados.<br/>Gancho: Pegada a Circunvalación: muy caliente para obra vial.<br/>Fuente: gurugo.com.ar / canterasbringas.ar<br/>Google Maps: https://www.google.com/maps/search/?api=1&query=-33.145000,-64.425000]]></description><Point><coordinates>-64.425,-33.145,0</coordinates></Point></Placemark>
<Placemark><name>CasaContainer Río Cuarto</name><styleUrl>#prioA</styleUrl><description><![CDATA[Corredor: Río Cuarto / RN36 sur<br/>Zona: Río Cuarto<br/>Sector: Módulos / containers<br/>Tel: 0358 4310288<br/>Encaje: Transporte y descarga de módulos a obra/campo.<br/>Gancho: Ellos venden “te lo llevamos”; PRESOL puede ser proveedor logístico.<br/>Fuente: Facebook CasaContainer<br/>Google Maps: https://www.google.com/maps/search/?api=1&query=-33.118737,-64.382102]]></description><Point><coordinates>-64.382102,-33.118737,0</coordinates></Point></Placemark>
<Placemark><name>Construcciones Metálicas El Colono S.A.</name><styleUrl>#prioA</styleUrl><description><![CDATA[Corredor: Río Cuarto / RN36 sur<br/>Zona: Río Cuarto<br/>Sector: Estructuras metálicas / silos<br/>Tel: 0358 4628525<br/>Encaje: Galpones, silos aéreos y estructuras: planchada + hidrogrúa.<br/>Gancho: Uno de los mejores encajes; pedir despacho/montaje.<br/>Fuente: elcolonosa.com.ar / Facebook<br/>Google Maps: https://www.google.com/maps/search/?api=1&query=-33.151690,-64.357888]]></description><Point><coordinates>-64.357888,-33.15169,0</coordinates></Point></Placemark>
<Placemark><name>Dexco Constructora</name><styleUrl>#prioA</styleUrl><description><![CDATA[Corredor: Río Cuarto / RN36 sur<br/>Zona: Río Cuarto<br/>Sector: Constructora local<br/>Tel: 0358 4640139 / 0358 154869634<br/>Encaje: Materiales, maquinaria, módulos, movimiento entre obras.<br/>Gancho: Tiene obras activas; pedir compras/operaciones.<br/>Fuente: constructoradexco.com/contacto<br/>Google Maps: https://www.google.com/maps/search/?api=1&query=-33.112715,-64.369622]]></description><Point><coordinates>-64.369622,-33.112715,0</coordinates></Point></Placemark>
<Placemark><name>Luciano S.A.</name><styleUrl>#prioA</styleUrl><description><![CDATA[Corredor: Río Cuarto / RN36 sur<br/>Zona: Río Cuarto<br/>Sector: Obra vial / UTE<br/>Tel: A relevar<br/>Encaje: Equipos viales y logística de obra.<br/>Gancho: Oferente/contratista; buscar obrador primero.<br/>Fuente: Construar / licitaciones<br/>Google Maps: https://www.google.com/maps/search/?api=1&query=-33.111000,-64.329000]]></description><Point><coordinates>-64.329,-33.111,0</coordinates></Point></Placemark>
<Placemark><name>Marinelli S.A.</name><styleUrl>#prioA</styleUrl><description><![CDATA[Corredor: Río Cuarto / RN36 sur<br/>Zona: Río Cuarto<br/>Sector: Áridos / hormigón / obras<br/>Tel: 0358 4647058<br/>Encaje: Cantera, plantas, equipos, apoyo a obra vial.<br/>Gancho: Tiene cantera y flota; ofrecer respaldo/picos/traslados especiales.<br/>Fuente: marinellisa.store<br/>Google Maps: https://www.google.com/maps/search/?api=1&query=-33.102771,-64.336058]]></description><Point><coordinates>-64.336058,-33.102771,0</coordinates></Point></Placemark>
<Placemark><name>Paolini Hnos S.A.</name><styleUrl>#prioA</styleUrl><description><![CDATA[Corredor: Río Cuarto / RN36 sur<br/>Zona: Río Cuarto<br/>Sector: Obra vial / constructora nacional<br/>Tel: 011 48779600<br/>Encaje: Transporte de equipos y materiales en obra pública.<br/>Gancho: Teléfono central; mejor entrar por obrador local.<br/>Fuente: paolini.com.ar<br/>Google Maps: https://www.google.com/maps/search/?api=1&query=-33.114000,-64.331000]]></description><Point><coordinates>-64.331,-33.114,0</coordinates></Point></Placemark>
<Placemark><name>Soardo Construcciones</name><styleUrl>#prioA</styleUrl><description><![CDATA[Corredor: Río Cuarto / RN36 sur<br/>Zona: Río Cuarto<br/>Sector: Constructora local<br/>Tel: 0358 4166315<br/>Encaje: Materiales, equipos, módulos para obras.<br/>Gancho: Pedir responsable de obra; cotizar un próximo traslado.<br/>Fuente: soardoconstrucciones.site<br/>Google Maps: https://www.google.com/maps/search/?api=1&query=-33.119000,-64.351000]]></description><Point><coordinates>-64.351,-33.119,0</coordinates></Point></Placemark>
<Placemark><name>Agrorio Maquinarias</name><styleUrl>#prioB</styleUrl><description><![CDATA[Corredor: Río Cuarto / RN36 sur<br/>Zona: Río Cuarto<br/>Sector: Maquinaria agrícola<br/>Tel: 03586 093110<br/>Encaje: Traslados de maquinaria “a cualquier punto del país”.<br/>Gancho: Ofrecer PRESOL como transportista regional confiable.<br/>Fuente: Facebook AgroRío<br/>Google Maps: https://www.google.com/maps/search/?api=1&query=-33.125500,-64.382000]]></description><Point><coordinates>-64.382,-33.1255,0</coordinates></Point></Placemark>
<Placemark><name>Capello S.A.</name><styleUrl>#prioB</styleUrl><description><![CDATA[Corredor: Río Cuarto / RN36 sur<br/>Zona: Río Cuarto<br/>Sector: Constructora / corralón<br/>Tel: 0358 4645929<br/>Encaje: Materiales y equipos para obra.<br/>Gancho: Vender apoyo logístico para obras y compras pesadas.<br/>Fuente: guia.deriocuarto.ar<br/>Google Maps: https://www.google.com/maps/search/?api=1&query=-33.121500,-64.350500]]></description><Point><coordinates>-64.3505,-33.1215,0</coordinates></Point></Placemark>
<Placemark><name>Cotagro — Río Cuarto</name><styleUrl>#prioB</styleUrl><description><![CDATA[Corredor: Río Cuarto / RN36 sur<br/>Zona: Río Cuarto<br/>Sector: Agro / fertilizantes / acopio<br/>Tel: 0358 4933333<br/>Encaje: Maquinaria, insumos pesados, equipos de planta.<br/>Gancho: Punto dentro de red Cotagro; usar puerta Alcira si funciona.<br/>Fuente: cotagroweb.com.ar/contacto<br/>Google Maps: https://www.google.com/maps/search/?api=1&query=-33.118000,-64.322000]]></description><Point><coordinates>-64.322,-33.118,0</coordinates></Point></Placemark>
<Placemark><name>Fontezuela Cereales</name><styleUrl>#prioB</styleUrl><description><![CDATA[Corredor: Río Cuarto / RN36 sur<br/>Zona: Río Cuarto<br/>Sector: Acopio / cereales<br/>Tel: 02477 497135/37<br/>Encaje: Equipos de planta, maquinaria, repuestos, logística agro.<br/>Gancho: Consultar frecuencia de movimientos especiales.<br/>Fuente: fontezuelacereales.com.ar<br/>Google Maps: https://www.google.com/maps/search/?api=1&query=-33.123200,-64.345300]]></description><Point><coordinates>-64.3453,-33.1232,0</coordinates></Point></Placemark>
<Placemark><name>Cooperativa Agropecuaria Almafuerte</name><styleUrl>#prioB</styleUrl><description><![CDATA[Corredor: Villa María / RP6<br/>Zona: Almafuerte<br/>Sector: Acopio / semillas / agroinsumos<br/>Tel: 03571 471182<br/>Encaje: Nueva planta, silos, maquinaria, módulos y materiales.<br/>Gancho: 100.000 tn acopiadas; preguntar ampliaciones/mantenimiento.<br/>Fuente: essapp.coop / Coop. Almafuerte<br/>Google Maps: https://www.google.com/maps/search/?api=1&query=-32.192000,-64.255000]]></description><Point><coordinates>-64.255,-32.192,0</coordinates></Point></Placemark>
<Placemark><name>Cooperativa Agrícola La Vencedora</name><styleUrl>#prioA</styleUrl><description><![CDATA[Corredor: Villa María / RP6<br/>Zona: Hernando<br/>Sector: Acopio / agroinsumos / combustible<br/>Tel: 0353 4847133<br/>Encaje: Silos, fertilizantes, maquinaria agro, módulos y estructuras.<br/>Gancho: Planta nueva 24.000 tn; pedir gerente Ariel Ferreyra.<br/>Fuente: Facebook / LinkedIn La Vencedora<br/>Google Maps: https://www.google.com/maps/search/?api=1&query=-32.426000,-63.733000]]></description><Point><coordinates>-63.733,-32.426,0</coordinates></Point></Placemark>
<Placemark><name>Agrohernando</name><styleUrl>#prioB</styleUrl><description><![CDATA[Corredor: Villa María / RP6<br/>Zona: Hernando<br/>Sector: Acopio / granos / insumos<br/>Tel: 0353 4960418<br/>Encaje: Maquinaria agrícola, cargas pesadas, agroinsumos.<br/>Gancho: Empresa familiar 20 años; pedir responsable de operaciones.<br/>Fuente: agrohernando.com.ar<br/>Google Maps: https://www.google.com/maps/search/?api=1&query=-32.428000,-63.730000]]></description><Point><coordinates>-63.73,-32.428,0</coordinates></Point></Placemark>
<Placemark><name>Industria Metal-Her</name><styleUrl>#prioB</styleUrl><description><![CDATA[Corredor: Villa María / RP6<br/>Zona: Hernando<br/>Sector: Implementos agrícolas / tolvas<br/>Tel: 0353 156568385 / 0353 4846509<br/>Encaje: Tolvas, acoplados, cisternas; planchada + hidrogrúa.<br/>Gancho: Muy buen encaje para entregas a clientes y ferias.<br/>Fuente: Facebook Industria Metal-Her<br/>Google Maps: https://www.google.com/maps/search/?api=1&query=-32.424000,-63.737000]]></description><Point><coordinates>-63.737,-32.424,0</coordinates></Point></Placemark>
<Placemark><name>AgroServ S.R.L.</name><styleUrl>#prioC</styleUrl><description><![CDATA[Corredor: Villa María / RP6<br/>Zona: Hernando<br/>Sector: Concesionario maquinaria agrícola<br/>Tel: A relevar<br/>Encaje: Entrega/retiro de máquinas; plataforma y malacate.<br/>Gancho: Concesionario Super Walter; relevar contacto directo.<br/>Fuente: Instagram AgroServ<br/>Google Maps: https://www.google.com/maps/search/?api=1&query=-32.429500,-63.734500]]></description><Point><coordinates>-63.7345,-32.4295,0</coordinates></Point></Placemark>
<Placemark><name>Her.Agro Maquinarias</name><styleUrl>#prioC</styleUrl><description><![CDATA[Corredor: Villa María / RP6<br/>Zona: Hernando<br/>Sector: Maquinaria agrícola nueva/usada<br/>Tel: 3535 690587 (a confirmar)<br/>Encaje: Traslados de maquinaria rural.<br/>Gancho: Entrar con cotización para próximos movimientos.<br/>Fuente: Facebook Her.Agro<br/>Google Maps: https://www.google.com/maps/search/?api=1&query=-32.422000,-63.731000]]></description><Point><coordinates>-63.731,-32.422,0</coordinates></Point></Placemark>
<Placemark><name>ACA — Centro de Desarrollo Comercial Tío Pujio</name><styleUrl>#prioA</styleUrl><description><![CDATA[Corredor: Villa María / RP6<br/>Zona: Tío Pujio<br/>Sector: Acopio gigante / agro<br/>Tel: 353 5622710 / 0353 4860518 / 0353 4860519<br/>Encaje: Silos, equipos de planta, 120 camiones/día en cosecha.<br/>Gancho: Pedir Mario Peppino / responsable logística; no ir sin ficha.<br/>Fuente: Instagram CDC / cooptiopujio.com<br/>Google Maps: https://www.google.com/maps/search/?api=1&query=-32.288000,-63.356000]]></description><Point><coordinates>-63.356,-32.288,0</coordinates></Point></Placemark>
<Placemark><name>Metalúrgica Jor-Ba / Grupo Tío Pujio</name><styleUrl>#prioB</styleUrl><description><![CDATA[Corredor: Villa María / RP6<br/>Zona: Tío Pujio<br/>Sector: Metalúrgica / extrusado soja<br/>Tel: 03573 402941<br/>Encaje: Equipos de planta, estructuras, repuestos pesados.<br/>Gancho: Validar si operación está en Tío Pujio o Villa del Rosario.<br/>Fuente: Facebook Metalúrgica Jor-Ba<br/>Google Maps: https://www.google.com/maps/search/?api=1&query=-32.290000,-63.352000]]></description><Point><coordinates>-63.352,-32.29,0</coordinates></Point></Placemark>
<Placemark><name>Héctor A. Bertone S.A.</name><styleUrl>#prioA</styleUrl><description><![CDATA[Corredor: Villa María / RP6<br/>Zona: Villa María<br/>Sector: Acopio / logística granaria<br/>Tel: A relevar<br/>Encaje: Acopio 10.000 tn, 40 camiones/día: equipos de planta y agro.<br/>Gancho: Pedir responsable de logística/acopio; teléfono a relevar.<br/>Fuente: HAB / LinkedIn logística<br/>Google Maps: https://www.google.com/maps/search/?api=1&query=-32.389000,-63.251000]]></description><Point><coordinates>-63.251,-32.389,0</coordinates></Point></Placemark>
<Placemark><name>Industrias Cormetal S.A.</name><styleUrl>#prioA</styleUrl><description><![CDATA[Corredor: Villa María / RP6<br/>Zona: Villa María<br/>Sector: Metalmecánica / estructuras<br/>Tel: 0353 4610900 / 0353 6567355<br/>Encaje: Estructuras, piezas, equipos; plataforma 20 tn.<br/>Gancho: Pedir responsable de logística/despachos.<br/>Fuente: guiademantenimiento.com / cormetal.com.ar<br/>Google Maps: https://www.google.com/maps/search/?api=1&query=-32.385796,-63.267403]]></description><Point><coordinates>-63.267403,-32.385796,0</coordinates></Point></Placemark>
<Placemark><name>Mayo Transformadores S.R.L.</name><styleUrl>#prioA</styleUrl><description><![CDATA[Corredor: Villa María / RP6<br/>Zona: Villa María<br/>Sector: Transformadores / metalmecánica<br/>Tel: 0353 4647606<br/>Encaje: Transformadores y equipos pesados requieren transporte seguro.<br/>Gancho: Seguro de carga + GPS como argumento fuerte.<br/>Fuente: pilt.com.ar<br/>Google Maps: https://www.google.com/maps/search/?api=1&query=-32.423000,-63.205000]]></description><Point><coordinates>-63.205,-32.423,0</coordinates></Point></Placemark>
<Placemark><name>Salsiteco S.A.</name><styleUrl>#prioA</styleUrl><description><![CDATA[Corredor: Villa María / RP6<br/>Zona: Villa María<br/>Sector: Constructora / movimiento de suelo<br/>Tel: 0353 4524006 / 0353 5006023<br/>Encaje: Equipos viales, retro, motoniveladora, compactadores, módulos.<br/>Gancho: Muy buen encaje con obras viales; pedir jefe de obra.<br/>Fuente: salsiteco.com.ar<br/>Google Maps: https://www.google.com/maps/search/?api=1&query=-32.412000,-63.236000]]></description><Point><coordinates>-63.236,-32.412,0</coordinates></Point></Placemark>
<Placemark><name>Carra Sanitarios</name><styleUrl>#prioB</styleUrl><description><![CDATA[Corredor: Villa María / RP6<br/>Zona: Villa María<br/>Sector: Materiales / sanitario / obra<br/>Tel: 0353 4125456<br/>Encaje: Cargas generales y materiales de obra; posible reparto pesado.<br/>Gancho: Ubicado sobre corredor; preguntar fletes a clientes/obras.<br/>Fuente: carrasanitarios.com.ar<br/>Google Maps: https://www.google.com/maps/search/?api=1&query=-32.421000,-63.232000]]></description><Point><coordinates>-63.232,-32.421,0</coordinates></Point></Placemark>
<Placemark><name>DM Constructora</name><styleUrl>#prioB</styleUrl><description><![CDATA[Corredor: Villa María / RP6<br/>Zona: Villa María<br/>Sector: Constructora<br/>Tel: 0353 4260498<br/>Encaje: Materiales, equipos y módulos para obra.<br/>Gancho: Pedir responsable de compras/obra.<br/>Fuente: dmconstructora.com.ar<br/>Google Maps: https://www.google.com/maps/search/?api=1&query=-32.408066,-63.245873]]></description><Point><coordinates>-63.245873,-32.408066,0</coordinates></Point></Placemark>
<Placemark><name>Dipromas S.R.L.</name><styleUrl>#prioB</styleUrl><description><![CDATA[Corredor: Villa María / RP6<br/>Zona: Villa María<br/>Sector: Metalmecánica / PILT<br/>Tel: 0353 4296608<br/>Encaje: Equipos y piezas para despacho industrial.<br/>Gancho: Visita dentro del PILT; pedir compras/logística.<br/>Fuente: pilt.com.ar<br/>Google Maps: https://www.google.com/maps/search/?api=1&query=-32.421000,-63.203000]]></description><Point><coordinates>-63.203,-32.421,0</coordinates></Point></Placemark>
<Placemark><name>Frigorífico La Pequeña S.R.L.</name><styleUrl>#prioB</styleUrl><description><![CDATA[Corredor: Villa María / RP6<br/>Zona: Villa María<br/>Sector: Alimenticia / frigorífico<br/>Tel: 0353 154197312<br/>Encaje: Equipos de planta, mantenimiento, estructuras.<br/>Gancho: No vender frío común; vender movimientos especiales.<br/>Fuente: pilt.com.ar<br/>Google Maps: https://www.google.com/maps/search/?api=1&query=-32.420000,-63.209000]]></description><Point><coordinates>-63.209,-32.42,0</coordinates></Point></Placemark>
<Placemark><name>Ghio Construcciones</name><styleUrl>#prioB</styleUrl><description><![CDATA[Corredor: Villa María / RP6<br/>Zona: Villa María<br/>Sector: Constructora / desarrollos<br/>Tel: 0353 4016390<br/>Encaje: Materiales, módulos, maquinaria chica.<br/>Gancho: Solicitar próximo traslado de obra.<br/>Fuente: Instagram Ghio Construcciones<br/>Google Maps: https://www.google.com/maps/search/?api=1&query=-32.415019,-63.237719]]></description><Point><coordinates>-63.237719,-32.415019,0</coordinates></Point></Placemark>
<Placemark><name>S.A. Molinos Fénix</name><styleUrl>#prioB</styleUrl><description><![CDATA[Corredor: Villa María / RP6<br/>Zona: Villa María<br/>Sector: Molino / alimentos<br/>Tel: 0353 4533573<br/>Encaje: Equipos, repuestos, mantenimiento industrial.<br/>Gancho: Preguntar por movimientos de maquinaria/planta.<br/>Fuente: molinosfenix.com.ar<br/>Google Maps: https://www.google.com/maps/search/?api=1&query=-32.410000,-63.246000]]></description><Point><coordinates>-63.246,-32.41,0</coordinates></Point></Placemark>
<Placemark><name>Sarmiento Materiales</name><styleUrl>#prioB</styleUrl><description><![CDATA[Corredor: Villa María / RP6<br/>Zona: Villa María<br/>Sector: Corralón / materiales<br/>Tel: 0353 4610259 / 0353 4112139<br/>Encaje: Materiales, pallets, hierro, estructuras livianas.<br/>Gancho: Cotizar reparto pesado fuera de zona o picos.<br/>Fuente: sarmientomateriales / directorio<br/>Google Maps: https://www.google.com/maps/search/?api=1&query=-32.411372,-63.226831]]></description><Point><coordinates>-63.226831,-32.411372,0</coordinates></Point></Placemark>
<Placemark><name>Stainless Steel Manufacturers S.R.L.</name><styleUrl>#prioB</styleUrl><description><![CDATA[Corredor: Villa María / RP6<br/>Zona: Villa María<br/>Sector: Acero inoxidable / fabricación<br/>Tel: 0353 4792885<br/>Encaje: Equipos inox, estructuras, piezas de ingeniería.<br/>Gancho: Posicionar transporte seguro para piezas terminadas.<br/>Fuente: pilt.com.ar<br/>Google Maps: https://www.google.com/maps/search/?api=1&query=-32.425000,-63.207000]]></description><Point><coordinates>-63.207,-32.425,0</coordinates></Point></Placemark>
<Placemark><name>Villa María Cereales</name><styleUrl>#prioB</styleUrl><description><![CDATA[Corredor: Villa María / RP6<br/>Zona: Villa María<br/>Sector: Acopio / agroinsumos<br/>Tel: 03535 656802<br/>Encaje: Equipos de planta, maquinarias y cargas agro.<br/>Gancho: RN 9 km 553; consultar próximos movimientos.<br/>Fuente: Facebook Villa María Cereales<br/>Google Maps: https://www.google.com/maps/search/?api=1&query=-32.386500,-63.260000]]></description><Point><coordinates>-63.26,-32.3865,0</coordinates></Point></Placemark>
<Placemark><name>San Borg Internacional / Laboratorios Weende</name><styleUrl>#prioC</styleUrl><description><![CDATA[Corredor: Villa María / RP6<br/>Zona: Villa María<br/>Sector: Laboratorio alimentos/agro<br/>Tel: 0353 4531453<br/>Encaje: Cargas industriales menores; equipos de planta.<br/>Gancho: Visita solo si queda en ruta PILT.<br/>Fuente: sanborginternacional.com.ar<br/>Google Maps: https://www.google.com/maps/search/?api=1&query=-32.412500,-63.247000]]></description><Point><coordinates>-63.247,-32.4125,0</coordinates></Point></Placemark>
<Placemark><name>AG Viviendas Industrializadas</name><styleUrl>#prioA</styleUrl><description><![CDATA[Corredor: Córdoba / RN36 norte<br/>Zona: Alta Gracia<br/>Sector: Módulos / viviendas industrializadas<br/>Tel: 3547 672399 / 3547 420854<br/>Encaje: Transporte de módulos; carga-descarga con malacate/hidrogrúa.<br/>Gancho: Cada venta necesita logística: proponer proveedor regional.<br/>Fuente: Facebook AG Viviendas<br/>Google Maps: https://www.google.com/maps/search/?api=1&query=-31.655000,-64.420000]]></description><Point><coordinates>-64.42,-31.655,0</coordinates></Point></Placemark>
<Placemark><name>Precons S.R.L.</name><styleUrl>#prioA</styleUrl><description><![CDATA[Corredor: Córdoba / RN36 norte<br/>Zona: Alta Gracia<br/>Sector: Premoldeados / tanques / construcción<br/>Tel: 3547 430993<br/>Encaje: Premoldeados y tanques: transporte con descarga segura.<br/>Gancho: Parque en expansión; ofrecer servicio a clientes finales.<br/>Fuente: eldirectorio.co / preconssrl.com.ar<br/>Google Maps: https://www.google.com/maps/search/?api=1&query=-31.662670,-64.414474]]></description><Point><coordinates>-64.414474,-31.66267,0</coordinates></Point></Placemark>
<Placemark><name>Grupo Buglione</name><styleUrl>#prioB</styleUrl><description><![CDATA[Corredor: Córdoba / RN36 norte<br/>Zona: Alta Gracia<br/>Sector: Autopartes / remanufactura<br/>Tel: 0351 6512408 / 0351 3271171 / 03547 432121<br/>Encaje: Equipos industriales, repuestos pesados, traslados de planta.<br/>Gancho: Parque N°53; entrar por logística/compras.<br/>Fuente: Facebook Grupo Buglione<br/>Google Maps: https://www.google.com/maps/search/?api=1&query=-31.660000,-64.430000]]></description><Point><coordinates>-64.43,-31.66,0</coordinates></Point></Placemark>
<Placemark><name>Habitaciones Calificadas</name><styleUrl>#prioB</styleUrl><description><![CDATA[Corredor: Córdoba / RN36 norte<br/>Zona: Alta Gracia<br/>Sector: Módulos habitacionales<br/>Tel: A relevar<br/>Encaje: Transporte de módulos y obradores.<br/>Gancho: Teléfono no confiable en web; relevar en visita/parque.<br/>Fuente: Informe de mercado / parque Alta Gracia<br/>Google Maps: https://www.google.com/maps/search/?api=1&query=-31.650000,-64.421000]]></description><Point><coordinates>-64.421,-31.65,0</coordinates></Point></Placemark>
<Placemark><name>Mattsay Steel Frame</name><styleUrl>#prioB</styleUrl><description><![CDATA[Corredor: Córdoba / RN36 norte<br/>Zona: Alta Gracia<br/>Sector: Casas modulares / steel frame<br/>Tel: 3547 477530<br/>Encaje: Módulos o paneles estructurales a obra.<br/>Gancho: Instalación en lote; preguntar si tercerizan traslados.<br/>Fuente: mattsay.com<br/>Google Maps: https://www.google.com/maps/search/?api=1&query=-31.653000,-64.428000]]></description><Point><coordinates>-64.428,-31.653,0</coordinates></Point></Placemark>
<Placemark><name>Boetto y Buttigliengo S.A.</name><styleUrl>#prioB</styleUrl><description><![CDATA[Corredor: Córdoba / RN36 norte<br/>Zona: Córdoba capital<br/>Sector: Constructora<br/>Tel: 0351 4653272<br/>Encaje: Materiales, equipos, módulos para obras.<br/>Gancho: Prospecto grande; mejor por obra/encargado que por administración.<br/>Fuente: BNamericas / bbcsa.com.ar<br/>Google Maps: https://www.google.com/maps/search/?api=1&query=-31.449963,-64.252114]]></description><Point><coordinates>-64.252114,-31.449963,0</coordinates></Point></Placemark>
<Placemark><name>CABIAL Empresa Constructora</name><styleUrl>#prioB</styleUrl><description><![CDATA[Corredor: Córdoba / RN36 norte<br/>Zona: Córdoba capital<br/>Sector: Constructora<br/>Tel: 0351 4822855 / 0351 4658599<br/>Encaje: Materiales, equipos y apoyo a obra.<br/>Gancho: Cotizar traslado concreto, no presentación genérica.<br/>Fuente: arempresas.com<br/>Google Maps: https://www.google.com/maps/search/?api=1&query=-31.438000,-64.205000]]></description><Point><coordinates>-64.205,-31.438,0</coordinates></Point></Placemark>
<Placemark><name>IngaV Constructora</name><styleUrl>#prioB</styleUrl><description><![CDATA[Corredor: Córdoba / RN36 norte<br/>Zona: Córdoba capital<br/>Sector: Constructora<br/>Tel: 0351 5890684 / 0351 5579222 (verificar)<br/>Encaje: Materiales, equipos y módulos.<br/>Gancho: Contacto directo WhatsApp; pedir próximo traslado.<br/>Fuente: ingavconstructora.com.ar<br/>Google Maps: https://www.google.com/maps/search/?api=1&query=-31.413163,-64.170080]]></description><Point><coordinates>-64.17008,-31.413163,0</coordinates></Point></Placemark>
<Placemark><name>AG GROUP Industria</name><styleUrl>#prioA</styleUrl><description><![CDATA[Corredor: Córdoba / RN36 norte<br/>Zona: Contacto remoto / Jesús María<br/>Sector: Módulos / construcción industrializada<br/>Tel: 3525 513210<br/>Encaje: Módulos habitacionales, oficinas y estructuras.<br/>Gancho: Aunque está en Jesús María, vende en Córdoba; ofrecer logística provincial.<br/>Fuente: aggroupindustria.com.ar<br/>Google Maps: https://www.google.com/maps/search/?api=1&query=-31.000000,-64.090000]]></description><Point><coordinates>-64.09,-31.0,0</coordinates></Point></Placemark>
<Placemark><name>Canteras Ruiz</name><styleUrl>#prioA</styleUrl><description><![CDATA[Corredor: Córdoba / RN36 norte<br/>Zona: Córdoba Sur-Oeste / canteras<br/>Sector: Áridos / cantera<br/>Tel: 0351 5570618 / 0351 4524228 / 0351 155508346<br/>Encaje: Áridos, maquinaria de cantera, movimientos de equipo.<br/>Gancho: Servicio de áridos sólo si se confirma volcador/tercerización.<br/>Fuente: canterasruiz.com<br/>Google Maps: https://www.google.com/maps/search/?api=1&query=-31.475000,-64.235000]]></description><Point><coordinates>-64.235,-31.475,0</coordinates></Point></Placemark>
<Placemark><name>Corralón Mis Ladrillos</name><styleUrl>#prioA</styleUrl><description><![CDATA[Corredor: Córdoba / RN36 norte<br/>Zona: Córdoba Oeste / Av. Colón<br/>Sector: Corralón mayorista<br/>Tel: 0351 3705858<br/>Encaje: Materiales de obra, pallets, hierro, cargas generales.<br/>Gancho: Entrada rápida a mercado capitalino; ofrecer reparto pesado regional.<br/>Fuente: Vuelta Canela / directorio<br/>Google Maps: https://www.google.com/maps/search/?api=1&query=-31.396774,-64.251905]]></description><Point><coordinates>-64.251905,-31.396774,0</coordinates></Point></Placemark>
<Placemark><name>Hormi Block S.A.</name><styleUrl>#prioA</styleUrl><description><![CDATA[Corredor: Córdoba / RN36 norte<br/>Zona: Córdoba Sur / RN36-Vélez Sarsfield<br/>Sector: Hormigón elaborado<br/>Tel: 0351 4939510 / 0351 4945800<br/>Encaje: Traslado de equipos, plantas, apoyo a obra y materiales.<br/>Gancho: Av. Vélez Sarsfield 5801; entrada directa por corredor.<br/>Fuente: InfoNegocios / Hormi Block<br/>Google Maps: https://www.google.com/maps/search/?api=1&query=-31.481687,-64.203118]]></description><Point><coordinates>-64.203118,-31.481687,0</coordinates></Point></Placemark>
<Placemark><name>Lucy’s House / Rental</name><styleUrl>#prioA</styleUrl><description><![CDATA[Corredor: Córdoba / RN36 norte<br/>Zona: Córdoba Norte / Monseñor Pablo Cabrera<br/>Sector: Módulos habitacionales<br/>Tel: 0351 2077113<br/>Encaje: Transporte y descarga de módulos.<br/>Gancho: Muy buen encaje para planchada + malacate.<br/>Fuente: Instagram Lucy’s House<br/>Google Maps: https://www.google.com/maps/search/?api=1&query=-31.368536,-64.205299]]></description><Point><coordinates>-64.205299,-31.368536,0</coordinates></Point></Placemark>
<Placemark><name>MegaContainers</name><styleUrl>#prioA</styleUrl><description><![CDATA[Corredor: Córdoba / RN36 norte<br/>Zona: Córdoba Norte-Oeste / Villa Belgrano<br/>Sector: Venta/alquiler de containers<br/>Tel: 0351 5179179<br/>Encaje: Transporte de containers y módulos a obra/campo.<br/>Gancho: Proveedor natural: cada container vendido necesita logística.<br/>Fuente: megacontainers.com.ar<br/>Google Maps: https://www.google.com/maps/search/?api=1&query=-31.350332,-64.254449]]></description><Point><coordinates>-64.254449,-31.350332,0</coordinates></Point></Placemark>
<Placemark><name>Bendito Corralón Mayorista</name><styleUrl>#prioB</styleUrl><description><![CDATA[Corredor: Córdoba / RN36 norte<br/>Zona: Córdoba capital zona sur<br/>Sector: Corralón mayorista<br/>Tel: 0351 8741592 (a confirmar)<br/>Encaje: Distribución de materiales pesados y picos de demanda.<br/>Gancho: Validar teléfono; si no, visita directa por local.<br/>Fuente: Instagram / búsqueda web<br/>Google Maps: https://www.google.com/maps/search/?api=1&query=-31.463000,-64.202000]]></description><Point><coordinates>-64.202,-31.463,0</coordinates></Point></Placemark>
<Placemark><name>Canteras Terra</name><styleUrl>#prioB</styleUrl><description><![CDATA[Corredor: Córdoba / RN36 norte<br/>Zona: Córdoba capital zona sur<br/>Sector: Áridos / cantera<br/>Tel: A relevar<br/>Encaje: Áridos y maquinaria de planta.<br/>Gancho: Teléfono web no confiable; relevar en terreno.<br/>Fuente: Directorio de canteras / investigación web<br/>Google Maps: https://www.google.com/maps/search/?api=1&query=-31.462000,-64.360000]]></description><Point><coordinates>-64.36,-31.462,0</coordinates></Point></Placemark>
<Placemark><name>Porta Hnos.</name><styleUrl>#prioB</styleUrl><description><![CDATA[Corredor: Córdoba / RN36 norte<br/>Zona: Córdoba Sur / Camino San Antonio<br/>Sector: Industrial / alcohol / alimentos<br/>Tel: 0351 4938400<br/>Encaje: Equipos de planta, repuestos pesados, cargas industriales.<br/>Gancho: Camino San Antonio km 4,5: visitar si entra en ruta Córdoba sur.<br/>Fuente: portahnos.com.ar<br/>Google Maps: https://www.google.com/maps/search/?api=1&query=-31.490145,-64.189401]]></description><Point><coordinates>-64.189401,-31.490145,0</coordinates></Point></Placemark>
<Placemark><name>Metal-Ferr</name><styleUrl>#prioB</styleUrl><description><![CDATA[Corredor: Córdoba / RN36 norte<br/>Zona: Despeñaderos<br/>Sector: Metalúrgica agro/industria<br/>Tel: 3547 525300 / 3547 492716<br/>Encaje: Estructuras, piezas, equipos; carga general y plataforma.<br/>Gancho: Empresa local 25+ años; pedir producción/despacho.<br/>Fuente: metal-ferr.com/contacto<br/>Google Maps: https://www.google.com/maps/search/?api=1&query=-31.817000,-64.294000]]></description><Point><coordinates>-64.294,-31.817,0</coordinates></Point></Placemark>
<Placemark><name>Parque Industrial Despeñaderos N°64</name><styleUrl>#prioB</styleUrl><description><![CDATA[Corredor: Córdoba / RN36 norte<br/>Zona: Despeñaderos<br/>Sector: Radicaciones industriales<br/>Tel: A relevar vía municipio<br/>Encaje: Mudanza de maquinaria, estructuras, materiales de nuevas naves.<br/>Gancho: Pedir listado de empresas radicadas al municipio/parque.<br/>Fuente: cba.gov.ar / despenaderos.gob.ar<br/>Google Maps: https://www.google.com/maps/search/?api=1&query=-31.812000,-64.289000]]></description><Point><coordinates>-64.289,-31.812,0</coordinates></Point></Placemark>
<Placemark><name>Iveco / CNH Ferreyra</name><styleUrl>#prioB</styleUrl><description><![CDATA[Corredor: Córdoba / RN36 norte<br/>Zona: Ferreyra / Santa Isabel<br/>Sector: Automotriz / camiones<br/>Tel: 011 20341400 (central)<br/>Encaje: Movimientos de troqueles, motores, estructuras, mantenimiento.<br/>Gancho: No entrar como pyme fría: buscar contratistas de montaje/mantenimiento.<br/>Fuente: Iveco / CEDAC<br/>Google Maps: https://www.google.com/maps/search/?api=1&query=-31.455000,-64.130000]]></description><Point><coordinates>-64.13,-31.455,0</coordinates></Point></Placemark>
<Placemark><name>Renault Planta Santa Isabel</name><styleUrl>#prioB</styleUrl><description><![CDATA[Corredor: Córdoba / RN36 norte<br/>Zona: Ferreyra / Santa Isabel<br/>Sector: Automotriz<br/>Tel: 0351 4268268<br/>Encaje: Montajes, equipos, troqueles, mantenimiento.<br/>Gancho: Prospecto largo; entrar por proveedores, no por compra directa.<br/>Fuente: renaultgroup.com Córdoba Plant<br/>Google Maps: https://www.google.com/maps/search/?api=1&query=-31.455000,-64.160000]]></description><Point><coordinates>-64.16,-31.455,0</coordinates></Point></Placemark>
<Placemark><name>Grupo Calidra / Cal Malagueño</name><styleUrl>#prioA</styleUrl><description><![CDATA[Corredor: Córdoba / RN36 norte<br/>Zona: Malagueño<br/>Sector: Cal / minería / áridos<br/>Tel: A relevar<br/>Encaje: Áridos, cal, maquinaria de cantera y mantenimiento.<br/>Gancho: Prospecto grande; entrar por mantenimiento/proveedores.<br/>Fuente: calidra.com.ar / investigación web<br/>Google Maps: https://www.google.com/maps/search/?api=1&query=-31.467000,-64.358000]]></description><Point><coordinates>-64.358,-31.467,0</coordinates></Point></Placemark>
<Placemark><name>Corralón Bergese Hnos.</name><styleUrl>#prioB</styleUrl><description><![CDATA[Corredor: Córdoba / RN36 norte<br/>Zona: Malagueño<br/>Sector: Corralón / materiales<br/>Tel: 0351 6870914 / 0351 2013895<br/>Encaje: Materiales pesados y reparto a obra.<br/>Gancho: Ofrecer refuerzo logístico para envíos fuera de zona.<br/>Fuente: ObraMaestra / corralonbergesehnos.com<br/>Google Maps: https://www.google.com/maps/search/?api=1&query=-31.441753,-64.439418]]></description><Point><coordinates>-64.439418,-31.441753,0</coordinates></Point></Placemark>
<Placemark><name>Parque Industrial Leonardo Da Vinci / Río Tercero</name><styleUrl>#hot</styleUrl><description><![CDATA[Corredor: Base Río Tercero<br/>Ciudad: Río Tercero<br/>Por qué importa: Alta densidad de metalúrgicas, hormigón, módulos y agroindustria. Primer día: bajo costo, muchas puertas.<br/>Radio aprox: 2500 m]]></description><Point><coordinates>-64.104,-32.181,0</coordinates></Point></Placemark>
<Placemark><name>Obra vial / Circunvalación Río Cuarto</name><styleUrl>#hot</styleUrl><description><![CDATA[Corredor: Río Cuarto / RN36 sur<br/>Ciudad: Río Cuarto<br/>Por qué importa: Constructoras y obradores con necesidad de mover equipos, módulos y materiales.<br/>Radio aprox: 6000 m]]></description><Point><coordinates>-64.335,-33.105,0</coordinates></Point></Placemark>
<Placemark><name>Canteras / áridos Río Cuarto oeste-sur</name><styleUrl>#hot</styleUrl><description><![CDATA[Corredor: Río Cuarto / RN36 sur<br/>Ciudad: Río Cuarto<br/>Por qué importa: Canteras Bringas, Marinelli y demanda de obra vial. Cuidado: confirmar capacidad para áridos.<br/>Radio aprox: 7000 m]]></description><Point><coordinates>-64.42,-33.14,0</coordinates></Point></Placemark>
<Placemark><name>PILT Villa María / Parque Industrial</name><styleUrl>#hot</styleUrl><description><![CDATA[Corredor: Villa María / RP6<br/>Ciudad: Villa María<br/>Por qué importa: Cormetal, Mayo, Dipromas, SSM, frigoríficos y metalmecánicas en un radio chico.<br/>Radio aprox: 3500 m]]></description><Point><coordinates>-63.205,-32.423,0</coordinates></Point></Placemark>
<Placemark><name>Obras RN158 / Villa María-Villa Nueva</name><styleUrl>#hot</styleUrl><description><![CDATA[Corredor: Villa María / RP6<br/>Ciudad: Villa María<br/>Por qué importa: Obras viales activas + constructoras + corralones sobre el eje RN158/RN9.<br/>Radio aprox: 5000 m]]></description><Point><coordinates>-63.245,-32.43,0</coordinates></Point></Placemark>
<Placemark><name>ACA Tío Pujio / acopio agro</name><styleUrl>#hot</styleUrl><description><![CDATA[Corredor: Villa María / RP6<br/>Ciudad: Tío Pujio<br/>Por qué importa: Acopio de alto volumen; buena puerta a equipos de planta y logística agro.<br/>Radio aprox: 2500 m]]></description><Point><coordinates>-63.356,-32.288,0</coordinates></Point></Placemark>
<Placemark><name>Hernando RP6 / agroindustria</name><styleUrl>#hot</styleUrl><description><![CDATA[Corredor: Villa María / RP6<br/>Ciudad: Hernando<br/>Por qué importa: La Vencedora, Metal-Her y agroservicios. Enfoque: silos, implementos, acopios.<br/>Radio aprox: 3000 m]]></description><Point><coordinates>-63.733,-32.426,0</coordinates></Point></Placemark>
<Placemark><name>Córdoba Sur / Vélez Sarsfield-RN36</name><styleUrl>#hot</styleUrl><description><![CDATA[Corredor: Córdoba / RN36 norte<br/>Ciudad: Córdoba capital zona sur<br/>Por qué importa: Hormi Block, Canteras Ruiz, Porta, corralones y acceso por RN36 sin meterse al centro.<br/>Radio aprox: 6500 m]]></description><Point><coordinates>-64.205,-31.47,0</coordinates></Point></Placemark>
<Placemark><name>Córdoba Oeste-Norte / módulos y corralones</name><styleUrl>#hot</styleUrl><description><![CDATA[Corredor: Córdoba / RN36 norte<br/>Ciudad: Córdoba capital<br/>Por qué importa: Mis Ladrillos, MegaContainers y Lucy’s House no caen todos en zona sur; trabajarlos como subruta aparte.<br/>Radio aprox: 8500 m]]></description><Point><coordinates>-64.235,-31.382,0</coordinates></Point></Placemark>
<Placemark><name>Alta Gracia / parques y módulos</name><styleUrl>#hot</styleUrl><description><![CDATA[Corredor: Córdoba / RN36 norte<br/>Ciudad: Alta Gracia<br/>Por qué importa: Premoldeados, viviendas industrializadas, parques en expansión.<br/>Radio aprox: 5000 m]]></description><Point><coordinates>-64.428,-31.653,0</coordinates></Point></Placemark>
<Placemark><name>Malagueño / cal y áridos</name><styleUrl>#hot</styleUrl><description><![CDATA[Corredor: Córdoba / RN36 norte<br/>Ciudad: Malagueño<br/>Por qué importa: Calidra, canteras/corralones y materiales. Entrada por mantenimiento/proveedores.<br/>Radio aprox: 5000 m]]></description><Point><coordinates>-64.358,-31.467,0</coordinates></Point></Placemark>
<Placemark><name>Ferreyra / Santa Isabel industrial</name><styleUrl>#hot</styleUrl><description><![CDATA[Corredor: Córdoba / RN36 norte<br/>Ciudad: Ferreyra / Santa Isabel<br/>Por qué importa: Automotriz y proveedores. Prospecto largo; atacar por contratistas de montaje.<br/>Radio aprox: 4500 m]]></description><Point><coordinates>-64.13,-31.455,0</coordinates></Point></Placemark>
<Placemark><name>Base local Río Tercero</name><styleUrl>#route</styleUrl><LineString><coordinates>-64.114,-32.173,0</coordinates></LineString></Placemark>
<Placemark><name>RN36 Sur — Río Cuarto</name><styleUrl>#route</styleUrl><LineString><coordinates>-64.114,-32.173,0 -64.191,-32.0225,0 -64.388,-32.452,0 -64.393,-32.573,0 -64.336,-32.757,0 -64.3493,-33.1232,0 -64.288,-33.093,0</coordinates></LineString></Placemark>
<Placemark><name>RP6/RN158 — Villa María</name><styleUrl>#route</styleUrl><LineString><coordinates>-64.114,-32.173,0 -63.733,-32.426,0 -63.356,-32.288,0 -63.24,-32.41,0 -63.247,-32.432,0</coordinates></LineString></Placemark>
<Placemark><name>RN36 Norte — Córdoba</name><styleUrl>#route</styleUrl><LineString><coordinates>-64.114,-32.173,0 -64.255,-32.192,0 -64.294,-31.817,0 -64.428,-31.653,0 -64.358,-31.467,0 -64.205,-31.47,0 -64.13,-31.455,0 -64.1888,-31.4201,0</coordinates></LineString></Placemark>
</Document></kml>