{
  "type": "FeatureCollection",
  "name": "PRESOL prospectos, zonas calientes y micro-rutas 2026-09",
  "features": [
    {
      "type": "Feature",
      "geometry": {
        "type": "Point",
        "coordinates": [
          -64.107,
          -32.182
        ]
      },
      "properties": {
        "corridor": "Base Río Tercero",
        "city": "Río Tercero",
        "priority": "A",
        "company": "ESISA",
        "sector": "Viviendas/módulos industrializados",
        "phone": "Portería parque: 03571 565662; mail esisaservicios@gmail.com",
        "fit": "Módulos habitacionales: planchada + malacate + descarga.",
        "hook": "Socio natural para entregas de módulos a obra.",
        "source": "Parque Industrial Río Tercero",
        "micro_zone": "Río Tercero",
        "geocode_quality": "address/zone approx"
      }
    },
    {
      "type": "Feature",
      "geometry": {
        "type": "Point",
        "coordinates": [
          -64.111,
          -32.178
        ]
      },
      "properties": {
        "corridor": "Base Río Tercero",
        "city": "Río Tercero",
        "priority": "A",
        "company": "Hormicor",
        "sector": "Hormigón elaborado",
        "phone": "03571 500888 / 03571 510066",
        "fit": "Movimiento de equipos, plantas móviles, bombas, áridos y premoldeados.",
        "hook": "Ofrecer respaldo para picos de obra y traslados de equipos.",
        "source": "hormigonelaborado.com / Hormicor",
        "micro_zone": "Río Tercero",
        "geocode_quality": "address/zone approx"
      }
    },
    {
      "type": "Feature",
      "geometry": {
        "type": "Point",
        "coordinates": [
          -64.106,
          -32.18
        ]
      },
      "properties": {
        "corridor": "Base Río Tercero",
        "city": "Río Tercero",
        "priority": "A",
        "company": "IMBAL S.A.",
        "sector": "Estructuras metálicas / montaje",
        "phone": "A relevar en terreno",
        "fit": "Plataforma + hidrogrúa para estructuras y obras metálicas.",
        "hook": "Fabrican y montan; pedir responsable de despacho/montaje.",
        "source": "Parque Industrial Río Tercero / LinkedIn comercial",
        "micro_zone": "Río Tercero",
        "geocode_quality": "address/zone approx"
      }
    },
    {
      "type": "Feature",
      "geometry": {
        "type": "Point",
        "coordinates": [
          -64.117,
          -32.169
        ]
      },
      "properties": {
        "corridor": "Base Río Tercero",
        "city": "Río Tercero",
        "priority": "A",
        "company": "Metalúrgica Novaretti",
        "sector": "Recipientes y equipos metalmecánicos",
        "phone": "03571 414282 / 03571 606930",
        "fit": "Piezas de ingeniería, tanques y recipientes en plataforma 20 tn.",
        "hook": "Cotizar despacho recurrente a plantas/obras.",
        "source": "novaretti.com.ar",
        "micro_zone": "Río Tercero",
        "geocode_quality": "address/zone approx"
      }
    },
    {
      "type": "Feature",
      "geometry": {
        "type": "Point",
        "coordinates": [
          -64.103,
          -32.181
        ]
      },
      "properties": {
        "corridor": "Base Río Tercero",
        "city": "Río Tercero",
        "priority": "A",
        "company": "Tres Eme S.A.",
        "sector": "Silos y mecanización",
        "phone": "03571 432190 / 03571 637720",
        "fit": "Traslado de silos, piezas, norias y estructuras.",
        "hook": "Ofrecer flete + descarga/posicionamiento en obra rural.",
        "source": "parqueindustrial.riotercero.gob.ar/empresa/Tres-Eme-S.A.",
        "micro_zone": "Río Tercero",
        "geocode_quality": "address/zone approx"
      }
    },
    {
      "type": "Feature",
      "geometry": {
        "type": "Point",
        "coordinates": [
          -64.101,
          -32.183
        ]
      },
      "properties": {
        "corridor": "Base Río Tercero",
        "city": "Río Tercero",
        "priority": "A",
        "company": "Vial del Centro",
        "sector": "Obras de infraestructura vial",
        "phone": "0351 6411413",
        "fit": "Transporte de equipos viales y módulos de obrador.",
        "hook": "Pedir próximo movimiento de maquinaria entre frentes.",
        "source": "Parque Industrial Río Tercero",
        "micro_zone": "Río Tercero",
        "geocode_quality": "address/zone approx"
      }
    },
    {
      "type": "Feature",
      "geometry": {
        "type": "Point",
        "coordinates": [
          -64.11,
          -32.173
        ]
      },
      "properties": {
        "corridor": "Base Río Tercero",
        "city": "Río Tercero",
        "priority": "B",
        "company": "Atanor / Albaugh",
        "sector": "Química / agroquímicos",
        "phone": "A relevar",
        "fit": "Piezas industriales, mantenimiento, repuestos pesados.",
        "hook": "No vender por puerta fría baja; pedir compras/mantenimiento.",
        "source": "Albaugh / noticias sectoriales",
        "micro_zone": "Río Tercero",
        "geocode_quality": "city offset approx"
      }
    },
    {
      "type": "Feature",
      "geometry": {
        "type": "Point",
        "coordinates": [
          -64.118792,
          -32.168609
        ]
      },
      "properties": {
        "corridor": "Base Río Tercero",
        "city": "Río Tercero",
        "priority": "B",
        "company": "Charrúa Implementos Agrícolas",
        "sector": "Implementos agrícolas",
        "phone": "03571 619149 / 03571 503663 (a confirmar)",
        "fit": "Despacho de implementos y equipos agrícolas.",
        "hook": "Pedir frecuencia de entregas a concesionarios/campos.",
        "source": "Web/Facebook Charrúa",
        "micro_zone": "Río Tercero",
        "geocode_quality": "city offset approx"
      }
    },
    {
      "type": "Feature",
      "geometry": {
        "type": "Point",
        "coordinates": [
          -64.113216,
          -32.181966
        ]
      },
      "properties": {
        "corridor": "Base Río Tercero",
        "city": "Río Tercero",
        "priority": "B",
        "company": "Fábrica Militar Río Tercero",
        "sector": "Industria estatal / metalmecánica pesada",
        "phone": "A relevar",
        "fit": "Piezas de ingeniería, vagones, estructuras y equipamiento.",
        "hook": "Entrar por proveedores/subcontratistas antes que compra directa estatal.",
        "source": "Fabricaciones Militares / informes previos",
        "micro_zone": "Río Tercero",
        "geocode_quality": "city offset approx"
      }
    },
    {
      "type": "Feature",
      "geometry": {
        "type": "Point",
        "coordinates": [
          -64.1048,
          -32.1818
        ]
      },
      "properties": {
        "corridor": "Base Río Tercero",
        "city": "Río Tercero",
        "priority": "B",
        "company": "HIDROSERVIS",
        "sector": "Cilindros hidráulicos",
        "phone": "Portería parque: 03571 565662",
        "fit": "Traslado de cilindros/equipos hidráulicos y servicios a clientes.",
        "hook": "Ofrecer servicio de retiro/entrega de equipos pesados.",
        "source": "Parque Industrial Río Tercero",
        "micro_zone": "Río Tercero",
        "geocode_quality": "address/zone approx"
      }
    },
    {
      "type": "Feature",
      "geometry": {
        "type": "Point",
        "coordinates": [
          -64.1165,
          -32.1715
        ]
      },
      "properties": {
        "corridor": "Base Río Tercero",
        "city": "Río Tercero",
        "priority": "B",
        "company": "Hidrobull",
        "sector": "Accesorios para minicargadoras",
        "phone": "03571 549612",
        "fit": "Despacho de accesorios viales/agrícolas, soporte a clientes.",
        "hook": "Preguntar si entregan accesorios con terceros.",
        "source": "Facebook Hidrobull",
        "micro_zone": "Río Tercero",
        "geocode_quality": "address/zone approx"
      }
    },
    {
      "type": "Feature",
      "geometry": {
        "type": "Point",
        "coordinates": [
          -64.106999,
          -32.163876
        ]
      },
      "properties": {
        "corridor": "Base Río Tercero",
        "city": "Río Tercero",
        "priority": "B",
        "company": "Hormilas S.A.",
        "sector": "Hormigón elaborado",
        "phone": "03571 573231 (a confirmar)",
        "fit": "Materiales, equipos y traslados de apoyo a obra.",
        "hook": "Visita breve: detectar si tercerizan fletes de planta.",
        "source": "Parque Industrial Río Tercero / búsqueda web",
        "micro_zone": "Río Tercero",
        "geocode_quality": "city offset approx"
      }
    },
    {
      "type": "Feature",
      "geometry": {
        "type": "Point",
        "coordinates": [
          -64.1185,
          -32.1705
        ]
      },
      "properties": {
        "corridor": "Base Río Tercero",
        "city": "Río Tercero",
        "priority": "B",
        "company": "MetalMec S.R.L.",
        "sector": "Implementos y accesorios",
        "phone": "03571 681577 / 03571 506656",
        "fit": "Despacho de equipos y accesorios; plataforma o carga general.",
        "hook": "Ofrecer retiro/entrega con monitoreo GPS.",
        "source": "Facebook MetalMec",
        "micro_zone": "Río Tercero",
        "geocode_quality": "address/zone approx"
      }
    },
    {
      "type": "Feature",
      "geometry": {
        "type": "Point",
        "coordinates": [
          -64.1025,
          -32.1826
        ]
      },
      "properties": {
        "corridor": "Base Río Tercero",
        "city": "Río Tercero",
        "priority": "B",
        "company": "Oleos San José S.R.L.",
        "sector": "Extrusado/aceite de soja",
        "phone": "03571 692471 / 03571 640630",
        "fit": "Movimiento de equipos, repuestos, cargas industriales.",
        "hook": "Entrar por mantenimiento/planta.",
        "source": "Parque Industrial Río Tercero",
        "micro_zone": "Río Tercero",
        "geocode_quality": "address/zone approx"
      }
    },
    {
      "type": "Feature",
      "geometry": {
        "type": "Point",
        "coordinates": [
          -64.127787,
          -32.175431
        ]
      },
      "properties": {
        "corridor": "Base Río Tercero",
        "city": "Río Tercero",
        "priority": "C",
        "company": "Grupo AVO S.A.",
        "sector": "Aceite de soja / balanceados",
        "phone": "Portería parque: 03571 565662",
        "fit": "Cargas industriales y mantenimiento.",
        "hook": "Visitar si queda en ruta del parque.",
        "source": "Parque Industrial Río Tercero",
        "micro_zone": "Río Tercero",
        "geocode_quality": "city offset approx"
      }
    },
    {
      "type": "Feature",
      "geometry": {
        "type": "Point",
        "coordinates": [
          -64.110626,
          -32.175149
        ]
      },
      "properties": {
        "corridor": "Base Río Tercero",
        "city": "Río Tercero",
        "priority": "C",
        "company": "Áridos S.A.",
        "sector": "Áridos / cantera",
        "phone": "A relevar",
        "fit": "Áridos y movimiento de equipos de cantera.",
        "hook": "Solo vender si se confirma caja volcadora o servicio tercerizable.",
        "source": "EMIS / Instagram @aridos.sa",
        "micro_zone": "Río Tercero",
        "geocode_quality": "city offset approx"
      }
    },
    {
      "type": "Feature",
      "geometry": {
        "type": "Point",
        "coordinates": [
          -64.339199,
          -32.755782
        ]
      },
      "properties": {
        "corridor": "Río Cuarto / RN36 sur",
        "city": "Alcira Gigena",
        "priority": "A",
        "company": "Cotagro — Alcira Gigena",
        "sector": "Cooperativa agroindustrial / maní / acopio",
        "phone": "358 4393127 / 358 4125695 / 0358 4933333",
        "fit": "Silos, maquinaria agro, plantas, módulos y materiales.",
        "hook": "Cotagro concentra 4 puntos del corredor; pedir compras/logística.",
        "source": "Facebook Cotagro / cotagroweb.com.ar",
        "micro_zone": "Alcira Gigena",
        "geocode_quality": "address/zone approx"
      }
    },
    {
      "type": "Feature",
      "geometry": {
        "type": "Point",
        "coordinates": [
          -64.335,
          -32.7575
        ]
      },
      "properties": {
        "corridor": "Río Cuarto / RN36 sur",
        "city": "Alcira Gigena",
        "priority": "B",
        "company": "Cooperativa Alba de Gigena",
        "sector": "Cooperativa agropecuaria",
        "phone": "0358 4960151",
        "fit": "Movimientos de planta, balanzas, maquinaria y materiales.",
        "hook": "Visita de diagnóstico; posible derivación a productores.",
        "source": "DNB / fuentes públicas",
        "micro_zone": "Alcira Gigena",
        "geocode_quality": "address/zone approx"
      }
    },
    {
      "type": "Feature",
      "geometry": {
        "type": "Point",
        "coordinates": [
          -64.332,
          -32.757
        ]
      },
      "properties": {
        "corridor": "Río Cuarto / RN36 sur",
        "city": "Alcira Gigena",
        "priority": "C",
        "company": "3C Biogás S.A.",
        "sector": "Energía / biogás",
        "phone": "A relevar",
        "fit": "Equipos industriales, mantenimiento, estructuras.",
        "hook": "Prospecto técnico; validar contacto local en terreno.",
        "source": "UNRC / investigación web",
        "micro_zone": "Alcira Gigena",
        "geocode_quality": "city offset approx"
      }
    },
    {
      "type": "Feature",
      "geometry": {
        "type": "Point",
        "coordinates": [
          -64.388,
          -32.452
        ]
      },
      "properties": {
        "corridor": "Río Cuarto / RN36 sur",
        "city": "Berrotarán",
        "priority": "B",
        "company": "Doble A Servicios Metalúrgicos",
        "sector": "Zinguería / estructuras metálicas",
        "phone": "358 4185826",
        "fit": "Traslado de chapas, estructuras, tinglados.",
        "hook": "Visitar y detectar obras/instalaciones próximas.",
        "source": "Facebook Doble A Servicios Metalúrgicos",
        "micro_zone": "Berrotarán",
        "geocode_quality": "address/zone approx"
      }
    },
    {
      "type": "Feature",
      "geometry": {
        "type": "Point",
        "coordinates": [
          -64.384,
          -32.452
        ]
      },
      "properties": {
        "corridor": "Río Cuarto / RN36 sur",
        "city": "Berrotarán",
        "priority": "C",
        "company": "Canteras/corralones locales",
        "sector": "Áridos / materiales",
        "phone": "A relevar",
        "fit": "Áridos, premoldeados, equipos de cantera.",
        "hook": "Relevamiento presencial: la web no muestra nombres confiables.",
        "source": "Relevamiento recomendado",
        "micro_zone": "Berrotarán",
        "geocode_quality": "city offset approx"
      }
    },
    {
      "type": "Feature",
      "geometry": {
        "type": "Point",
        "coordinates": [
          -64.208,
          -33.016
        ]
      },
      "properties": {
        "corridor": "Río Cuarto / RN36 sur",
        "city": "Chucul",
        "priority": "B",
        "company": "Cotagro — Sucursal Chucul",
        "sector": "Acopio agropecuario",
        "phone": "0358 4912008 / 0358 4933333",
        "fit": "Maquinaria/agroinsumos; derivación hacia Cotagro central.",
        "hook": "Punto de paso; no dedicar medio día.",
        "source": "Maptons / Cotagro",
        "micro_zone": "Chucul",
        "geocode_quality": "address/zone approx"
      }
    },
    {
      "type": "Feature",
      "geometry": {
        "type": "Point",
        "coordinates": [
          -64.191,
          -32.0225
        ]
      },
      "properties": {
        "corridor": "Río Cuarto / RN36 sur",
        "city": "Corralito",
        "priority": "A",
        "company": "AGD — Planta de Acopio Corralito",
        "sector": "Acopio agroindustrial",
        "phone": "03571 492144 / 492172 / 492228",
        "fit": "Maquinaria agrícola, silos, balanzas, equipos de planta.",
        "hook": "Acopio AGD; pedir operaciones/mantenimiento.",
        "source": "agd.com.ar/es/corralito-acopio",
        "micro_zone": "Corralito",
        "geocode_quality": "address/zone approx"
      }
    },
    {
      "type": "Feature",
      "geometry": {
        "type": "Point",
        "coordinates": [
          -64.183,
          -32.03
        ]
      },
      "properties": {
        "corridor": "Río Cuarto / RN36 sur",
        "city": "Corralito",
        "priority": "B",
        "company": "Trisoil S.A.",
        "sector": "Alimentos balanceados / aceite",
        "phone": "03571 502525 / 502526",
        "fit": "Cargas industriales y equipos de planta.",
        "hook": "Ofrecer fletes de repuestos/equipos y cargas especiales.",
        "source": "trisoil.com.ar",
        "micro_zone": "Corralito",
        "geocode_quality": "address/zone approx"
      }
    },
    {
      "type": "Feature",
      "geometry": {
        "type": "Point",
        "coordinates": [
          -64.392432,
          -32.569649
        ]
      },
      "properties": {
        "corridor": "Río Cuarto / RN36 sur",
        "city": "Elena",
        "priority": "A",
        "company": "CAGLE — Cooperativa Agrícola de Elena",
        "sector": "Acopio / agro / estación de servicios",
        "phone": "3584 881118",
        "fit": "Nueva planta/acopio, maquinaria agro, módulos, materiales.",
        "hook": "Obras recientes + nueva planta futura: transporte de equipos.",
        "source": "cagle.com.ar",
        "micro_zone": "Elena",
        "geocode_quality": "address/zone approx"
      }
    },
    {
      "type": "Feature",
      "geometry": {
        "type": "Point",
        "coordinates": [
          -64.39,
          -32.5718
        ]
      },
      "properties": {
        "corridor": "Río Cuarto / RN36 sur",
        "city": "Elena",
        "priority": "B",
        "company": "Gliestore S.A.",
        "sector": "Soja / alimentos / exportación",
        "phone": "0358 4641548 / 9358 4024598",
        "fit": "Cargas industriales, maquinaria, repuestos y embalajes pesados.",
        "hook": "Empresa exportadora; preguntar por logística de equipos y planta.",
        "source": "Exportadores de Córdoba",
        "micro_zone": "Elena",
        "geocode_quality": "address/zone approx"
      }
    },
    {
      "type": "Feature",
      "geometry": {
        "type": "Point",
        "coordinates": [
          -64.288,
          -33.093
        ]
      },
      "properties": {
        "corridor": "Río Cuarto / RN36 sur",
        "city": "Las Higueras",
        "priority": "B",
        "company": "Parque Industrial y Logístico Las Higueras",
        "sector": "Radicaciones / logística",
        "phone": "A relevar vía municipio/parque",
        "fit": "Mudanzas industriales, estructuras, maquinaria de nuevas plantas.",
        "hook": "Pedir listado de empresas radicadas y obras en apertura de calles.",
        "source": "argentina.gob.ar / La Voz",
        "micro_zone": "Las Higueras",
        "geocode_quality": "address/zone approx"
      }
    },
    {
      "type": "Feature",
      "geometry": {
        "type": "Point",
        "coordinates": [
          -64.335,
          -33.105
        ]
      },
      "properties": {
        "corridor": "Río Cuarto / RN36 sur",
        "city": "Río Cuarto",
        "priority": "A",
        "company": "AFEMA S.A.",
        "sector": "Constructora vial",
        "phone": "0351 7371862",
        "fit": "Movimiento urgente de equipos viales por Circunvalación.",
        "hook": "Obras viales activas; pedir jefe de obra/logística.",
        "source": "Facebook AFEMA",
        "micro_zone": "Río Cuarto",
        "geocode_quality": "address/zone approx"
      }
    },
    {
      "type": "Feature",
      "geometry": {
        "type": "Point",
        "coordinates": [
          -64.327,
          -33.108
        ]
      },
      "properties": {
        "corridor": "Río Cuarto / RN36 sur",
        "city": "Río Cuarto",
        "priority": "A",
        "company": "BIDESA Obras Viales y Civiles",
        "sector": "Obra vial / UTE",
        "phone": "A relevar en obrador",
        "fit": "Transporte de máquinas, módulos de obrador, estructuras.",
        "hook": "Si está en obra, entrar por obrador; teléfono no público.",
        "source": "Construar / Boletín Oficial",
        "micro_zone": "Río Cuarto",
        "geocode_quality": "address/zone approx"
      }
    },
    {
      "type": "Feature",
      "geometry": {
        "type": "Point",
        "coordinates": [
          -64.425,
          -33.145
        ]
      },
      "properties": {
        "corridor": "Río Cuarto / RN36 sur",
        "city": "Río Cuarto",
        "priority": "A",
        "company": "Canteras Bringas",
        "sector": "Áridos / hormigón / obra pública",
        "phone": "0358 154906010",
        "fit": "Transporte de máquinas, plantas móviles, áridos y premoldeados.",
        "hook": "Pegada a Circunvalación: muy caliente para obra vial.",
        "source": "gurugo.com.ar / canterasbringas.ar",
        "micro_zone": "Río Cuarto",
        "geocode_quality": "address/zone approx"
      }
    },
    {
      "type": "Feature",
      "geometry": {
        "type": "Point",
        "coordinates": [
          -64.382102,
          -33.118737
        ]
      },
      "properties": {
        "corridor": "Río Cuarto / RN36 sur",
        "city": "Río Cuarto",
        "priority": "A",
        "company": "CasaContainer Río Cuarto",
        "sector": "Módulos / containers",
        "phone": "0358 4310288",
        "fit": "Transporte y descarga de módulos a obra/campo.",
        "hook": "Ellos venden “te lo llevamos”; PRESOL puede ser proveedor logístico.",
        "source": "Facebook CasaContainer",
        "micro_zone": "Río Cuarto",
        "geocode_quality": "address/zone approx"
      }
    },
    {
      "type": "Feature",
      "geometry": {
        "type": "Point",
        "coordinates": [
          -64.357888,
          -33.15169
        ]
      },
      "properties": {
        "corridor": "Río Cuarto / RN36 sur",
        "city": "Río Cuarto",
        "priority": "A",
        "company": "Construcciones Metálicas El Colono S.A.",
        "sector": "Estructuras metálicas / silos",
        "phone": "0358 4628525",
        "fit": "Galpones, silos aéreos y estructuras: planchada + hidrogrúa.",
        "hook": "Uno de los mejores encajes; pedir despacho/montaje.",
        "source": "elcolonosa.com.ar / Facebook",
        "micro_zone": "Río Cuarto",
        "geocode_quality": "address/zone approx"
      }
    },
    {
      "type": "Feature",
      "geometry": {
        "type": "Point",
        "coordinates": [
          -64.369622,
          -33.112715
        ]
      },
      "properties": {
        "corridor": "Río Cuarto / RN36 sur",
        "city": "Río Cuarto",
        "priority": "A",
        "company": "Dexco Constructora",
        "sector": "Constructora local",
        "phone": "0358 4640139 / 0358 154869634",
        "fit": "Materiales, maquinaria, módulos, movimiento entre obras.",
        "hook": "Tiene obras activas; pedir compras/operaciones.",
        "source": "constructoradexco.com/contacto",
        "micro_zone": "Río Cuarto",
        "geocode_quality": "address/zone approx"
      }
    },
    {
      "type": "Feature",
      "geometry": {
        "type": "Point",
        "coordinates": [
          -64.329,
          -33.111
        ]
      },
      "properties": {
        "corridor": "Río Cuarto / RN36 sur",
        "city": "Río Cuarto",
        "priority": "A",
        "company": "Luciano S.A.",
        "sector": "Obra vial / UTE",
        "phone": "A relevar",
        "fit": "Equipos viales y logística de obra.",
        "hook": "Oferente/contratista; buscar obrador primero.",
        "source": "Construar / licitaciones",
        "micro_zone": "Río Cuarto",
        "geocode_quality": "address/zone approx"
      }
    },
    {
      "type": "Feature",
      "geometry": {
        "type": "Point",
        "coordinates": [
          -64.336058,
          -33.102771
        ]
      },
      "properties": {
        "corridor": "Río Cuarto / RN36 sur",
        "city": "Río Cuarto",
        "priority": "A",
        "company": "Marinelli S.A.",
        "sector": "Áridos / hormigón / obras",
        "phone": "0358 4647058",
        "fit": "Cantera, plantas, equipos, apoyo a obra vial.",
        "hook": "Tiene cantera y flota; ofrecer respaldo/picos/traslados especiales.",
        "source": "marinellisa.store",
        "micro_zone": "Río Cuarto",
        "geocode_quality": "address/zone approx"
      }
    },
    {
      "type": "Feature",
      "geometry": {
        "type": "Point",
        "coordinates": [
          -64.331,
          -33.114
        ]
      },
      "properties": {
        "corridor": "Río Cuarto / RN36 sur",
        "city": "Río Cuarto",
        "priority": "A",
        "company": "Paolini Hnos S.A.",
        "sector": "Obra vial / constructora nacional",
        "phone": "011 48779600",
        "fit": "Transporte de equipos y materiales en obra pública.",
        "hook": "Teléfono central; mejor entrar por obrador local.",
        "source": "paolini.com.ar",
        "micro_zone": "Río Cuarto",
        "geocode_quality": "address/zone approx"
      }
    },
    {
      "type": "Feature",
      "geometry": {
        "type": "Point",
        "coordinates": [
          -64.351,
          -33.119
        ]
      },
      "properties": {
        "corridor": "Río Cuarto / RN36 sur",
        "city": "Río Cuarto",
        "priority": "A",
        "company": "Soardo Construcciones",
        "sector": "Constructora local",
        "phone": "0358 4166315",
        "fit": "Materiales, equipos, módulos para obras.",
        "hook": "Pedir responsable de obra; cotizar un próximo traslado.",
        "source": "soardoconstrucciones.site",
        "micro_zone": "Río Cuarto",
        "geocode_quality": "address/zone approx"
      }
    },
    {
      "type": "Feature",
      "geometry": {
        "type": "Point",
        "coordinates": [
          -64.382,
          -33.1255
        ]
      },
      "properties": {
        "corridor": "Río Cuarto / RN36 sur",
        "city": "Río Cuarto",
        "priority": "B",
        "company": "Agrorio Maquinarias",
        "sector": "Maquinaria agrícola",
        "phone": "03586 093110",
        "fit": "Traslados de maquinaria “a cualquier punto del país”.",
        "hook": "Ofrecer PRESOL como transportista regional confiable.",
        "source": "Facebook AgroRío",
        "micro_zone": "Río Cuarto",
        "geocode_quality": "address/zone approx"
      }
    },
    {
      "type": "Feature",
      "geometry": {
        "type": "Point",
        "coordinates": [
          -64.3505,
          -33.1215
        ]
      },
      "properties": {
        "corridor": "Río Cuarto / RN36 sur",
        "city": "Río Cuarto",
        "priority": "B",
        "company": "Capello S.A.",
        "sector": "Constructora / corralón",
        "phone": "0358 4645929",
        "fit": "Materiales y equipos para obra.",
        "hook": "Vender apoyo logístico para obras y compras pesadas.",
        "source": "guia.deriocuarto.ar",
        "micro_zone": "Río Cuarto",
        "geocode_quality": "address/zone approx"
      }
    },
    {
      "type": "Feature",
      "geometry": {
        "type": "Point",
        "coordinates": [
          -64.322,
          -33.118
        ]
      },
      "properties": {
        "corridor": "Río Cuarto / RN36 sur",
        "city": "Río Cuarto",
        "priority": "B",
        "company": "Cotagro — Río Cuarto",
        "sector": "Agro / fertilizantes / acopio",
        "phone": "0358 4933333",
        "fit": "Maquinaria, insumos pesados, equipos de planta.",
        "hook": "Punto dentro de red Cotagro; usar puerta Alcira si funciona.",
        "source": "cotagroweb.com.ar/contacto",
        "micro_zone": "Río Cuarto",
        "geocode_quality": "address/zone approx"
      }
    },
    {
      "type": "Feature",
      "geometry": {
        "type": "Point",
        "coordinates": [
          -64.3453,
          -33.1232
        ]
      },
      "properties": {
        "corridor": "Río Cuarto / RN36 sur",
        "city": "Río Cuarto",
        "priority": "B",
        "company": "Fontezuela Cereales",
        "sector": "Acopio / cereales",
        "phone": "02477 497135/37",
        "fit": "Equipos de planta, maquinaria, repuestos, logística agro.",
        "hook": "Consultar frecuencia de movimientos especiales.",
        "source": "fontezuelacereales.com.ar",
        "micro_zone": "Río Cuarto",
        "geocode_quality": "city offset approx"
      }
    },
    {
      "type": "Feature",
      "geometry": {
        "type": "Point",
        "coordinates": [
          -64.255,
          -32.192
        ]
      },
      "properties": {
        "corridor": "Villa María / RP6",
        "city": "Almafuerte",
        "priority": "B",
        "company": "Cooperativa Agropecuaria Almafuerte",
        "sector": "Acopio / semillas / agroinsumos",
        "phone": "03571 471182",
        "fit": "Nueva planta, silos, maquinaria, módulos y materiales.",
        "hook": "100.000 tn acopiadas; preguntar ampliaciones/mantenimiento.",
        "source": "essapp.coop / Coop. Almafuerte",
        "micro_zone": "Almafuerte",
        "geocode_quality": "address/zone approx"
      }
    },
    {
      "type": "Feature",
      "geometry": {
        "type": "Point",
        "coordinates": [
          -63.733,
          -32.426
        ]
      },
      "properties": {
        "corridor": "Villa María / RP6",
        "city": "Hernando",
        "priority": "A",
        "company": "Cooperativa Agrícola La Vencedora",
        "sector": "Acopio / agroinsumos / combustible",
        "phone": "0353 4847133",
        "fit": "Silos, fertilizantes, maquinaria agro, módulos y estructuras.",
        "hook": "Planta nueva 24.000 tn; pedir gerente Ariel Ferreyra.",
        "source": "Facebook / LinkedIn La Vencedora",
        "micro_zone": "Hernando",
        "geocode_quality": "address/zone approx"
      }
    },
    {
      "type": "Feature",
      "geometry": {
        "type": "Point",
        "coordinates": [
          -63.73,
          -32.428
        ]
      },
      "properties": {
        "corridor": "Villa María / RP6",
        "city": "Hernando",
        "priority": "B",
        "company": "Agrohernando",
        "sector": "Acopio / granos / insumos",
        "phone": "0353 4960418",
        "fit": "Maquinaria agrícola, cargas pesadas, agroinsumos.",
        "hook": "Empresa familiar 20 años; pedir responsable de operaciones.",
        "source": "agrohernando.com.ar",
        "micro_zone": "Hernando",
        "geocode_quality": "address/zone approx"
      }
    },
    {
      "type": "Feature",
      "geometry": {
        "type": "Point",
        "coordinates": [
          -63.737,
          -32.424
        ]
      },
      "properties": {
        "corridor": "Villa María / RP6",
        "city": "Hernando",
        "priority": "B",
        "company": "Industria Metal-Her",
        "sector": "Implementos agrícolas / tolvas",
        "phone": "0353 156568385 / 0353 4846509",
        "fit": "Tolvas, acoplados, cisternas; planchada + hidrogrúa.",
        "hook": "Muy buen encaje para entregas a clientes y ferias.",
        "source": "Facebook Industria Metal-Her",
        "micro_zone": "Hernando",
        "geocode_quality": "address/zone approx"
      }
    },
    {
      "type": "Feature",
      "geometry": {
        "type": "Point",
        "coordinates": [
          -63.7345,
          -32.4295
        ]
      },
      "properties": {
        "corridor": "Villa María / RP6",
        "city": "Hernando",
        "priority": "C",
        "company": "AgroServ S.R.L.",
        "sector": "Concesionario maquinaria agrícola",
        "phone": "A relevar",
        "fit": "Entrega/retiro de máquinas; plataforma y malacate.",
        "hook": "Concesionario Super Walter; relevar contacto directo.",
        "source": "Instagram AgroServ",
        "micro_zone": "Hernando",
        "geocode_quality": "address/zone approx"
      }
    },
    {
      "type": "Feature",
      "geometry": {
        "type": "Point",
        "coordinates": [
          -63.731,
          -32.422
        ]
      },
      "properties": {
        "corridor": "Villa María / RP6",
        "city": "Hernando",
        "priority": "C",
        "company": "Her.Agro Maquinarias",
        "sector": "Maquinaria agrícola nueva/usada",
        "phone": "3535 690587 (a confirmar)",
        "fit": "Traslados de maquinaria rural.",
        "hook": "Entrar con cotización para próximos movimientos.",
        "source": "Facebook Her.Agro",
        "micro_zone": "Hernando",
        "geocode_quality": "address/zone approx"
      }
    },
    {
      "type": "Feature",
      "geometry": {
        "type": "Point",
        "coordinates": [
          -63.356,
          -32.288
        ]
      },
      "properties": {
        "corridor": "Villa María / RP6",
        "city": "Tío Pujio",
        "priority": "A",
        "company": "ACA — Centro de Desarrollo Comercial Tío Pujio",
        "sector": "Acopio gigante / agro",
        "phone": "353 5622710 / 0353 4860518 / 0353 4860519",
        "fit": "Silos, equipos de planta, 120 camiones/día en cosecha.",
        "hook": "Pedir Mario Peppino / responsable logística; no ir sin ficha.",
        "source": "Instagram CDC / cooptiopujio.com",
        "micro_zone": "Tío Pujio",
        "geocode_quality": "address/zone approx"
      }
    },
    {
      "type": "Feature",
      "geometry": {
        "type": "Point",
        "coordinates": [
          -63.352,
          -32.29
        ]
      },
      "properties": {
        "corridor": "Villa María / RP6",
        "city": "Tío Pujio",
        "priority": "B",
        "company": "Metalúrgica Jor-Ba / Grupo Tío Pujio",
        "sector": "Metalúrgica / extrusado soja",
        "phone": "03573 402941",
        "fit": "Equipos de planta, estructuras, repuestos pesados.",
        "hook": "Validar si operación está en Tío Pujio o Villa del Rosario.",
        "source": "Facebook Metalúrgica Jor-Ba",
        "micro_zone": "Tío Pujio",
        "geocode_quality": "address/zone approx"
      }
    },
    {
      "type": "Feature",
      "geometry": {
        "type": "Point",
        "coordinates": [
          -63.251,
          -32.389
        ]
      },
      "properties": {
        "corridor": "Villa María / RP6",
        "city": "Villa María",
        "priority": "A",
        "company": "Héctor A. Bertone S.A.",
        "sector": "Acopio / logística granaria",
        "phone": "A relevar",
        "fit": "Acopio 10.000 tn, 40 camiones/día: equipos de planta y agro.",
        "hook": "Pedir responsable de logística/acopio; teléfono a relevar.",
        "source": "HAB / LinkedIn logística",
        "micro_zone": "Villa María",
        "geocode_quality": "address/zone approx"
      }
    },
    {
      "type": "Feature",
      "geometry": {
        "type": "Point",
        "coordinates": [
          -63.267403,
          -32.385796
        ]
      },
      "properties": {
        "corridor": "Villa María / RP6",
        "city": "Villa María",
        "priority": "A",
        "company": "Industrias Cormetal S.A.",
        "sector": "Metalmecánica / estructuras",
        "phone": "0353 4610900 / 0353 6567355",
        "fit": "Estructuras, piezas, equipos; plataforma 20 tn.",
        "hook": "Pedir responsable de logística/despachos.",
        "source": "guiademantenimiento.com / cormetal.com.ar",
        "micro_zone": "Villa María",
        "geocode_quality": "address/zone approx"
      }
    },
    {
      "type": "Feature",
      "geometry": {
        "type": "Point",
        "coordinates": [
          -63.205,
          -32.423
        ]
      },
      "properties": {
        "corridor": "Villa María / RP6",
        "city": "Villa María",
        "priority": "A",
        "company": "Mayo Transformadores S.R.L.",
        "sector": "Transformadores / metalmecánica",
        "phone": "0353 4647606",
        "fit": "Transformadores y equipos pesados requieren transporte seguro.",
        "hook": "Seguro de carga + GPS como argumento fuerte.",
        "source": "pilt.com.ar",
        "micro_zone": "Villa María",
        "geocode_quality": "address/zone approx"
      }
    },
    {
      "type": "Feature",
      "geometry": {
        "type": "Point",
        "coordinates": [
          -63.236,
          -32.412
        ]
      },
      "properties": {
        "corridor": "Villa María / RP6",
        "city": "Villa María",
        "priority": "A",
        "company": "Salsiteco S.A.",
        "sector": "Constructora / movimiento de suelo",
        "phone": "0353 4524006 / 0353 5006023",
        "fit": "Equipos viales, retro, motoniveladora, compactadores, módulos.",
        "hook": "Muy buen encaje con obras viales; pedir jefe de obra.",
        "source": "salsiteco.com.ar",
        "micro_zone": "Villa María",
        "geocode_quality": "address/zone approx"
      }
    },
    {
      "type": "Feature",
      "geometry": {
        "type": "Point",
        "coordinates": [
          -63.232,
          -32.421
        ]
      },
      "properties": {
        "corridor": "Villa María / RP6",
        "city": "Villa María",
        "priority": "B",
        "company": "Carra Sanitarios",
        "sector": "Materiales / sanitario / obra",
        "phone": "0353 4125456",
        "fit": "Cargas generales y materiales de obra; posible reparto pesado.",
        "hook": "Ubicado sobre corredor; preguntar fletes a clientes/obras.",
        "source": "carrasanitarios.com.ar",
        "micro_zone": "Villa María",
        "geocode_quality": "address/zone approx"
      }
    },
    {
      "type": "Feature",
      "geometry": {
        "type": "Point",
        "coordinates": [
          -63.245873,
          -32.408066
        ]
      },
      "properties": {
        "corridor": "Villa María / RP6",
        "city": "Villa María",
        "priority": "B",
        "company": "DM Constructora",
        "sector": "Constructora",
        "phone": "0353 4260498",
        "fit": "Materiales, equipos y módulos para obra.",
        "hook": "Pedir responsable de compras/obra.",
        "source": "dmconstructora.com.ar",
        "micro_zone": "Villa María",
        "geocode_quality": "address/zone approx"
      }
    },
    {
      "type": "Feature",
      "geometry": {
        "type": "Point",
        "coordinates": [
          -63.203,
          -32.421
        ]
      },
      "properties": {
        "corridor": "Villa María / RP6",
        "city": "Villa María",
        "priority": "B",
        "company": "Dipromas S.R.L.",
        "sector": "Metalmecánica / PILT",
        "phone": "0353 4296608",
        "fit": "Equipos y piezas para despacho industrial.",
        "hook": "Visita dentro del PILT; pedir compras/logística.",
        "source": "pilt.com.ar",
        "micro_zone": "Villa María",
        "geocode_quality": "address/zone approx"
      }
    },
    {
      "type": "Feature",
      "geometry": {
        "type": "Point",
        "coordinates": [
          -63.209,
          -32.42
        ]
      },
      "properties": {
        "corridor": "Villa María / RP6",
        "city": "Villa María",
        "priority": "B",
        "company": "Frigorífico La Pequeña S.R.L.",
        "sector": "Alimenticia / frigorífico",
        "phone": "0353 154197312",
        "fit": "Equipos de planta, mantenimiento, estructuras.",
        "hook": "No vender frío común; vender movimientos especiales.",
        "source": "pilt.com.ar",
        "micro_zone": "Villa María",
        "geocode_quality": "address/zone approx"
      }
    },
    {
      "type": "Feature",
      "geometry": {
        "type": "Point",
        "coordinates": [
          -63.237719,
          -32.415019
        ]
      },
      "properties": {
        "corridor": "Villa María / RP6",
        "city": "Villa María",
        "priority": "B",
        "company": "Ghio Construcciones",
        "sector": "Constructora / desarrollos",
        "phone": "0353 4016390",
        "fit": "Materiales, módulos, maquinaria chica.",
        "hook": "Solicitar próximo traslado de obra.",
        "source": "Instagram Ghio Construcciones",
        "micro_zone": "Villa María",
        "geocode_quality": "address/zone approx"
      }
    },
    {
      "type": "Feature",
      "geometry": {
        "type": "Point",
        "coordinates": [
          -63.246,
          -32.41
        ]
      },
      "properties": {
        "corridor": "Villa María / RP6",
        "city": "Villa María",
        "priority": "B",
        "company": "S.A. Molinos Fénix",
        "sector": "Molino / alimentos",
        "phone": "0353 4533573",
        "fit": "Equipos, repuestos, mantenimiento industrial.",
        "hook": "Preguntar por movimientos de maquinaria/planta.",
        "source": "molinosfenix.com.ar",
        "micro_zone": "Villa María",
        "geocode_quality": "address/zone approx"
      }
    },
    {
      "type": "Feature",
      "geometry": {
        "type": "Point",
        "coordinates": [
          -63.226831,
          -32.411372
        ]
      },
      "properties": {
        "corridor": "Villa María / RP6",
        "city": "Villa María",
        "priority": "B",
        "company": "Sarmiento Materiales",
        "sector": "Corralón / materiales",
        "phone": "0353 4610259 / 0353 4112139",
        "fit": "Materiales, pallets, hierro, estructuras livianas.",
        "hook": "Cotizar reparto pesado fuera de zona o picos.",
        "source": "sarmientomateriales / directorio",
        "micro_zone": "Villa María",
        "geocode_quality": "address/zone approx"
      }
    },
    {
      "type": "Feature",
      "geometry": {
        "type": "Point",
        "coordinates": [
          -63.207,
          -32.425
        ]
      },
      "properties": {
        "corridor": "Villa María / RP6",
        "city": "Villa María",
        "priority": "B",
        "company": "Stainless Steel Manufacturers S.R.L.",
        "sector": "Acero inoxidable / fabricación",
        "phone": "0353 4792885",
        "fit": "Equipos inox, estructuras, piezas de ingeniería.",
        "hook": "Posicionar transporte seguro para piezas terminadas.",
        "source": "pilt.com.ar",
        "micro_zone": "Villa María",
        "geocode_quality": "address/zone approx"
      }
    },
    {
      "type": "Feature",
      "geometry": {
        "type": "Point",
        "coordinates": [
          -63.26,
          -32.3865
        ]
      },
      "properties": {
        "corridor": "Villa María / RP6",
        "city": "Villa María",
        "priority": "B",
        "company": "Villa María Cereales",
        "sector": "Acopio / agroinsumos",
        "phone": "03535 656802",
        "fit": "Equipos de planta, maquinarias y cargas agro.",
        "hook": "RN 9 km 553; consultar próximos movimientos.",
        "source": "Facebook Villa María Cereales",
        "micro_zone": "Villa María",
        "geocode_quality": "address/zone approx"
      }
    },
    {
      "type": "Feature",
      "geometry": {
        "type": "Point",
        "coordinates": [
          -63.247,
          -32.4125
        ]
      },
      "properties": {
        "corridor": "Villa María / RP6",
        "city": "Villa María",
        "priority": "C",
        "company": "San Borg Internacional / Laboratorios Weende",
        "sector": "Laboratorio alimentos/agro",
        "phone": "0353 4531453",
        "fit": "Cargas industriales menores; equipos de planta.",
        "hook": "Visita solo si queda en ruta PILT.",
        "source": "sanborginternacional.com.ar",
        "micro_zone": "Villa María",
        "geocode_quality": "address/zone approx"
      }
    },
    {
      "type": "Feature",
      "geometry": {
        "type": "Point",
        "coordinates": [
          -64.42,
          -31.655
        ]
      },
      "properties": {
        "corridor": "Córdoba / RN36 norte",
        "city": "Alta Gracia",
        "priority": "A",
        "company": "AG Viviendas Industrializadas",
        "sector": "Módulos / viviendas industrializadas",
        "phone": "3547 672399 / 3547 420854",
        "fit": "Transporte de módulos; carga-descarga con malacate/hidrogrúa.",
        "hook": "Cada venta necesita logística: proponer proveedor regional.",
        "source": "Facebook AG Viviendas",
        "micro_zone": "Alta Gracia",
        "geocode_quality": "address/zone approx"
      }
    },
    {
      "type": "Feature",
      "geometry": {
        "type": "Point",
        "coordinates": [
          -64.414474,
          -31.66267
        ]
      },
      "properties": {
        "corridor": "Córdoba / RN36 norte",
        "city": "Alta Gracia",
        "priority": "A",
        "company": "Precons S.R.L.",
        "sector": "Premoldeados / tanques / construcción",
        "phone": "3547 430993",
        "fit": "Premoldeados y tanques: transporte con descarga segura.",
        "hook": "Parque en expansión; ofrecer servicio a clientes finales.",
        "source": "eldirectorio.co / preconssrl.com.ar",
        "micro_zone": "Alta Gracia",
        "geocode_quality": "address/zone approx"
      }
    },
    {
      "type": "Feature",
      "geometry": {
        "type": "Point",
        "coordinates": [
          -64.43,
          -31.66
        ]
      },
      "properties": {
        "corridor": "Córdoba / RN36 norte",
        "city": "Alta Gracia",
        "priority": "B",
        "company": "Grupo Buglione",
        "sector": "Autopartes / remanufactura",
        "phone": "0351 6512408 / 0351 3271171 / 03547 432121",
        "fit": "Equipos industriales, repuestos pesados, traslados de planta.",
        "hook": "Parque N°53; entrar por logística/compras.",
        "source": "Facebook Grupo Buglione",
        "micro_zone": "Alta Gracia",
        "geocode_quality": "address/zone approx"
      }
    },
    {
      "type": "Feature",
      "geometry": {
        "type": "Point",
        "coordinates": [
          -64.421,
          -31.65
        ]
      },
      "properties": {
        "corridor": "Córdoba / RN36 norte",
        "city": "Alta Gracia",
        "priority": "B",
        "company": "Habitaciones Calificadas",
        "sector": "Módulos habitacionales",
        "phone": "A relevar",
        "fit": "Transporte de módulos y obradores.",
        "hook": "Teléfono no confiable en web; relevar en visita/parque.",
        "source": "Informe de mercado / parque Alta Gracia",
        "micro_zone": "Alta Gracia",
        "geocode_quality": "address/zone approx"
      }
    },
    {
      "type": "Feature",
      "geometry": {
        "type": "Point",
        "coordinates": [
          -64.428,
          -31.653
        ]
      },
      "properties": {
        "corridor": "Córdoba / RN36 norte",
        "city": "Alta Gracia",
        "priority": "B",
        "company": "Mattsay Steel Frame",
        "sector": "Casas modulares / steel frame",
        "phone": "3547 477530",
        "fit": "Módulos o paneles estructurales a obra.",
        "hook": "Instalación en lote; preguntar si tercerizan traslados.",
        "source": "mattsay.com",
        "micro_zone": "Alta Gracia",
        "geocode_quality": "address/zone approx"
      }
    },
    {
      "type": "Feature",
      "geometry": {
        "type": "Point",
        "coordinates": [
          -64.252114,
          -31.449963
        ]
      },
      "properties": {
        "corridor": "Córdoba / RN36 norte",
        "city": "Córdoba capital",
        "priority": "B",
        "company": "Boetto y Buttigliengo S.A.",
        "sector": "Constructora",
        "phone": "0351 4653272",
        "fit": "Materiales, equipos, módulos para obras.",
        "hook": "Prospecto grande; mejor por obra/encargado que por administración.",
        "source": "BNamericas / bbcsa.com.ar",
        "micro_zone": "Córdoba capital",
        "geocode_quality": "address/zone approx"
      }
    },
    {
      "type": "Feature",
      "geometry": {
        "type": "Point",
        "coordinates": [
          -64.205,
          -31.438
        ]
      },
      "properties": {
        "corridor": "Córdoba / RN36 norte",
        "city": "Córdoba capital",
        "priority": "B",
        "company": "CABIAL Empresa Constructora",
        "sector": "Constructora",
        "phone": "0351 4822855 / 0351 4658599",
        "fit": "Materiales, equipos y apoyo a obra.",
        "hook": "Cotizar traslado concreto, no presentación genérica.",
        "source": "arempresas.com",
        "micro_zone": "Córdoba capital",
        "geocode_quality": "address/zone approx"
      }
    },
    {
      "type": "Feature",
      "geometry": {
        "type": "Point",
        "coordinates": [
          -64.17008,
          -31.413163
        ]
      },
      "properties": {
        "corridor": "Córdoba / RN36 norte",
        "city": "Córdoba capital",
        "priority": "B",
        "company": "IngaV Constructora",
        "sector": "Constructora",
        "phone": "0351 5890684 / 0351 5579222 (verificar)",
        "fit": "Materiales, equipos y módulos.",
        "hook": "Contacto directo WhatsApp; pedir próximo traslado.",
        "source": "ingavconstructora.com.ar",
        "micro_zone": "Córdoba capital",
        "geocode_quality": "address/zone approx"
      }
    },
    {
      "type": "Feature",
      "geometry": {
        "type": "Point",
        "coordinates": [
          -64.09,
          -31.0
        ]
      },
      "properties": {
        "corridor": "Córdoba / RN36 norte",
        "city": "Córdoba capital zona sur",
        "priority": "A",
        "company": "AG GROUP Industria",
        "sector": "Módulos / construcción industrializada",
        "phone": "3525 513210",
        "fit": "Módulos habitacionales, oficinas y estructuras.",
        "hook": "Aunque está en Jesús María, vende en Córdoba; ofrecer logística provincial.",
        "source": "aggroupindustria.com.ar",
        "micro_zone": "Contacto remoto / Jesús María",
        "geocode_quality": "address/zone approx"
      }
    },
    {
      "type": "Feature",
      "geometry": {
        "type": "Point",
        "coordinates": [
          -64.235,
          -31.475
        ]
      },
      "properties": {
        "corridor": "Córdoba / RN36 norte",
        "city": "Córdoba capital zona sur",
        "priority": "A",
        "company": "Canteras Ruiz",
        "sector": "Áridos / cantera",
        "phone": "0351 5570618 / 0351 4524228 / 0351 155508346",
        "fit": "Áridos, maquinaria de cantera, movimientos de equipo.",
        "hook": "Servicio de áridos sólo si se confirma volcador/tercerización.",
        "source": "canterasruiz.com",
        "micro_zone": "Córdoba Sur-Oeste / canteras",
        "geocode_quality": "address/zone approx"
      }
    },
    {
      "type": "Feature",
      "geometry": {
        "type": "Point",
        "coordinates": [
          -64.251905,
          -31.396774
        ]
      },
      "properties": {
        "corridor": "Córdoba / RN36 norte",
        "city": "Córdoba capital zona sur",
        "priority": "A",
        "company": "Corralón Mis Ladrillos",
        "sector": "Corralón mayorista",
        "phone": "0351 3705858",
        "fit": "Materiales de obra, pallets, hierro, cargas generales.",
        "hook": "Entrada rápida a mercado capitalino; ofrecer reparto pesado regional.",
        "source": "Vuelta Canela / directorio",
        "micro_zone": "Córdoba Oeste / Av. Colón",
        "geocode_quality": "address/zone approx"
      }
    },
    {
      "type": "Feature",
      "geometry": {
        "type": "Point",
        "coordinates": [
          -64.203118,
          -31.481687
        ]
      },
      "properties": {
        "corridor": "Córdoba / RN36 norte",
        "city": "Córdoba capital zona sur",
        "priority": "A",
        "company": "Hormi Block S.A.",
        "sector": "Hormigón elaborado",
        "phone": "0351 4939510 / 0351 4945800",
        "fit": "Traslado de equipos, plantas, apoyo a obra y materiales.",
        "hook": "Av. Vélez Sarsfield 5801; entrada directa por corredor.",
        "source": "InfoNegocios / Hormi Block",
        "micro_zone": "Córdoba Sur / RN36-Vélez Sarsfield",
        "geocode_quality": "address/zone approx"
      }
    },
    {
      "type": "Feature",
      "geometry": {
        "type": "Point",
        "coordinates": [
          -64.205299,
          -31.368536
        ]
      },
      "properties": {
        "corridor": "Córdoba / RN36 norte",
        "city": "Córdoba capital zona sur",
        "priority": "A",
        "company": "Lucy’s House / Rental",
        "sector": "Módulos habitacionales",
        "phone": "0351 2077113",
        "fit": "Transporte y descarga de módulos.",
        "hook": "Muy buen encaje para planchada + malacate.",
        "source": "Instagram Lucy’s House",
        "micro_zone": "Córdoba Norte / Monseñor Pablo Cabrera",
        "geocode_quality": "address/zone approx"
      }
    },
    {
      "type": "Feature",
      "geometry": {
        "type": "Point",
        "coordinates": [
          -64.254449,
          -31.350332
        ]
      },
      "properties": {
        "corridor": "Córdoba / RN36 norte",
        "city": "Córdoba capital zona sur",
        "priority": "A",
        "company": "MegaContainers",
        "sector": "Venta/alquiler de containers",
        "phone": "0351 5179179",
        "fit": "Transporte de containers y módulos a obra/campo.",
        "hook": "Proveedor natural: cada container vendido necesita logística.",
        "source": "megacontainers.com.ar",
        "micro_zone": "Córdoba Norte-Oeste / Villa Belgrano",
        "geocode_quality": "address/zone approx"
      }
    },
    {
      "type": "Feature",
      "geometry": {
        "type": "Point",
        "coordinates": [
          -64.202,
          -31.463
        ]
      },
      "properties": {
        "corridor": "Córdoba / RN36 norte",
        "city": "Córdoba capital zona sur",
        "priority": "B",
        "company": "Bendito Corralón Mayorista",
        "sector": "Corralón mayorista",
        "phone": "0351 8741592 (a confirmar)",
        "fit": "Distribución de materiales pesados y picos de demanda.",
        "hook": "Validar teléfono; si no, visita directa por local.",
        "source": "Instagram / búsqueda web",
        "micro_zone": "Córdoba capital zona sur",
        "geocode_quality": "address/zone approx"
      }
    },
    {
      "type": "Feature",
      "geometry": {
        "type": "Point",
        "coordinates": [
          -64.36,
          -31.462
        ]
      },
      "properties": {
        "corridor": "Córdoba / RN36 norte",
        "city": "Córdoba capital zona sur",
        "priority": "B",
        "company": "Canteras Terra",
        "sector": "Áridos / cantera",
        "phone": "A relevar",
        "fit": "Áridos y maquinaria de planta.",
        "hook": "Teléfono web no confiable; relevar en terreno.",
        "source": "Directorio de canteras / investigación web",
        "micro_zone": "Córdoba capital zona sur",
        "geocode_quality": "address/zone approx"
      }
    },
    {
      "type": "Feature",
      "geometry": {
        "type": "Point",
        "coordinates": [
          -64.189401,
          -31.490145
        ]
      },
      "properties": {
        "corridor": "Córdoba / RN36 norte",
        "city": "Córdoba capital zona sur",
        "priority": "B",
        "company": "Porta Hnos.",
        "sector": "Industrial / alcohol / alimentos",
        "phone": "0351 4938400",
        "fit": "Equipos de planta, repuestos pesados, cargas industriales.",
        "hook": "Camino San Antonio km 4,5: visitar si entra en ruta Córdoba sur.",
        "source": "portahnos.com.ar",
        "micro_zone": "Córdoba Sur / Camino San Antonio",
        "geocode_quality": "address/zone approx"
      }
    },
    {
      "type": "Feature",
      "geometry": {
        "type": "Point",
        "coordinates": [
          -64.294,
          -31.817
        ]
      },
      "properties": {
        "corridor": "Córdoba / RN36 norte",
        "city": "Despeñaderos",
        "priority": "B",
        "company": "Metal-Ferr",
        "sector": "Metalúrgica agro/industria",
        "phone": "3547 525300 / 3547 492716",
        "fit": "Estructuras, piezas, equipos; carga general y plataforma.",
        "hook": "Empresa local 25+ años; pedir producción/despacho.",
        "source": "metal-ferr.com/contacto",
        "micro_zone": "Despeñaderos",
        "geocode_quality": "address/zone approx"
      }
    },
    {
      "type": "Feature",
      "geometry": {
        "type": "Point",
        "coordinates": [
          -64.289,
          -31.812
        ]
      },
      "properties": {
        "corridor": "Córdoba / RN36 norte",
        "city": "Despeñaderos",
        "priority": "B",
        "company": "Parque Industrial Despeñaderos N°64",
        "sector": "Radicaciones industriales",
        "phone": "A relevar vía municipio",
        "fit": "Mudanza de maquinaria, estructuras, materiales de nuevas naves.",
        "hook": "Pedir listado de empresas radicadas al municipio/parque.",
        "source": "cba.gov.ar / despenaderos.gob.ar",
        "micro_zone": "Despeñaderos",
        "geocode_quality": "address/zone approx"
      }
    },
    {
      "type": "Feature",
      "geometry": {
        "type": "Point",
        "coordinates": [
          -64.13,
          -31.455
        ]
      },
      "properties": {
        "corridor": "Córdoba / RN36 norte",
        "city": "Ferreyra / Santa Isabel",
        "priority": "B",
        "company": "Iveco / CNH Ferreyra",
        "sector": "Automotriz / camiones",
        "phone": "011 20341400 (central)",
        "fit": "Movimientos de troqueles, motores, estructuras, mantenimiento.",
        "hook": "No entrar como pyme fría: buscar contratistas de montaje/mantenimiento.",
        "source": "Iveco / CEDAC",
        "micro_zone": "Ferreyra / Santa Isabel",
        "geocode_quality": "address/zone approx"
      }
    },
    {
      "type": "Feature",
      "geometry": {
        "type": "Point",
        "coordinates": [
          -64.16,
          -31.455
        ]
      },
      "properties": {
        "corridor": "Córdoba / RN36 norte",
        "city": "Ferreyra / Santa Isabel",
        "priority": "B",
        "company": "Renault Planta Santa Isabel",
        "sector": "Automotriz",
        "phone": "0351 4268268",
        "fit": "Montajes, equipos, troqueles, mantenimiento.",
        "hook": "Prospecto largo; entrar por proveedores, no por compra directa.",
        "source": "renaultgroup.com Córdoba Plant",
        "micro_zone": "Ferreyra / Santa Isabel",
        "geocode_quality": "address/zone approx"
      }
    },
    {
      "type": "Feature",
      "geometry": {
        "type": "Point",
        "coordinates": [
          -64.358,
          -31.467
        ]
      },
      "properties": {
        "corridor": "Córdoba / RN36 norte",
        "city": "Malagueño",
        "priority": "A",
        "company": "Grupo Calidra / Cal Malagueño",
        "sector": "Cal / minería / áridos",
        "phone": "A relevar",
        "fit": "Áridos, cal, maquinaria de cantera y mantenimiento.",
        "hook": "Prospecto grande; entrar por mantenimiento/proveedores.",
        "source": "calidra.com.ar / investigación web",
        "micro_zone": "Malagueño",
        "geocode_quality": "address/zone approx"
      }
    },
    {
      "type": "Feature",
      "geometry": {
        "type": "Point",
        "coordinates": [
          -64.439418,
          -31.441753
        ]
      },
      "properties": {
        "corridor": "Córdoba / RN36 norte",
        "city": "Malagueño",
        "priority": "B",
        "company": "Corralón Bergese Hnos.",
        "sector": "Corralón / materiales",
        "phone": "0351 6870914 / 0351 2013895",
        "fit": "Materiales pesados y reparto a obra.",
        "hook": "Ofrecer refuerzo logístico para envíos fuera de zona.",
        "source": "ObraMaestra / corralonbergesehnos.com",
        "micro_zone": "Malagueño",
        "geocode_quality": "address/zone approx"
      }
    },
    {
      "type": "Feature",
      "geometry": {
        "type": "Point",
        "coordinates": [
          -64.104,
          -32.181
        ]
      },
      "properties": {
        "kind": "hot_zone",
        "company": "Parque Industrial Leonardo Da Vinci / Río Tercero",
        "name": "Parque Industrial Leonardo Da Vinci / Río Tercero",
        "corridor": "Base Río Tercero",
        "city": "Río Tercero",
        "priority": "HOT",
        "sector": "Zona caliente",
        "phone": "",
        "fit": "Alta densidad de metalúrgicas, hormigón, módulos y agroindustria. Primer día: bajo costo, muchas puertas.",
        "hook": "Trabajar como bloque de visitas",
        "source": "Definición estratégica PRESOL 2026-09",
        "radius_m": 2500,
        "geocode_quality": "manual-zone"
      }
    },
    {
      "type": "Feature",
      "geometry": {
        "type": "Point",
        "coordinates": [
          -64.335,
          -33.105
        ]
      },
      "properties": {
        "kind": "hot_zone",
        "company": "Obra vial / Circunvalación Río Cuarto",
        "name": "Obra vial / Circunvalación Río Cuarto",
        "corridor": "Río Cuarto / RN36 sur",
        "city": "Río Cuarto",
        "priority": "HOT",
        "sector": "Zona caliente",
        "phone": "",
        "fit": "Constructoras y obradores con necesidad de mover equipos, módulos y materiales.",
        "hook": "Trabajar como bloque de visitas",
        "source": "Definición estratégica PRESOL 2026-09",
        "radius_m": 6000,
        "geocode_quality": "manual-zone"
      }
    },
    {
      "type": "Feature",
      "geometry": {
        "type": "Point",
        "coordinates": [
          -64.42,
          -33.14
        ]
      },
      "properties": {
        "kind": "hot_zone",
        "company": "Canteras / áridos Río Cuarto oeste-sur",
        "name": "Canteras / áridos Río Cuarto oeste-sur",
        "corridor": "Río Cuarto / RN36 sur",
        "city": "Río Cuarto",
        "priority": "HOT",
        "sector": "Zona caliente",
        "phone": "",
        "fit": "Canteras Bringas, Marinelli y demanda de obra vial. Cuidado: confirmar capacidad para áridos.",
        "hook": "Trabajar como bloque de visitas",
        "source": "Definición estratégica PRESOL 2026-09",
        "radius_m": 7000,
        "geocode_quality": "manual-zone"
      }
    },
    {
      "type": "Feature",
      "geometry": {
        "type": "Point",
        "coordinates": [
          -63.205,
          -32.423
        ]
      },
      "properties": {
        "kind": "hot_zone",
        "company": "PILT Villa María / Parque Industrial",
        "name": "PILT Villa María / Parque Industrial",
        "corridor": "Villa María / RP6",
        "city": "Villa María",
        "priority": "HOT",
        "sector": "Zona caliente",
        "phone": "",
        "fit": "Cormetal, Mayo, Dipromas, SSM, frigoríficos y metalmecánicas en un radio chico.",
        "hook": "Trabajar como bloque de visitas",
        "source": "Definición estratégica PRESOL 2026-09",
        "radius_m": 3500,
        "geocode_quality": "manual-zone"
      }
    },
    {
      "type": "Feature",
      "geometry": {
        "type": "Point",
        "coordinates": [
          -63.245,
          -32.43
        ]
      },
      "properties": {
        "kind": "hot_zone",
        "company": "Obras RN158 / Villa María-Villa Nueva",
        "name": "Obras RN158 / Villa María-Villa Nueva",
        "corridor": "Villa María / RP6",
        "city": "Villa María",
        "priority": "HOT",
        "sector": "Zona caliente",
        "phone": "",
        "fit": "Obras viales activas + constructoras + corralones sobre el eje RN158/RN9.",
        "hook": "Trabajar como bloque de visitas",
        "source": "Definición estratégica PRESOL 2026-09",
        "radius_m": 5000,
        "geocode_quality": "manual-zone"
      }
    },
    {
      "type": "Feature",
      "geometry": {
        "type": "Point",
        "coordinates": [
          -63.356,
          -32.288
        ]
      },
      "properties": {
        "kind": "hot_zone",
        "company": "ACA Tío Pujio / acopio agro",
        "name": "ACA Tío Pujio / acopio agro",
        "corridor": "Villa María / RP6",
        "city": "Tío Pujio",
        "priority": "HOT",
        "sector": "Zona caliente",
        "phone": "",
        "fit": "Acopio de alto volumen; buena puerta a equipos de planta y logística agro.",
        "hook": "Trabajar como bloque de visitas",
        "source": "Definición estratégica PRESOL 2026-09",
        "radius_m": 2500,
        "geocode_quality": "manual-zone"
      }
    },
    {
      "type": "Feature",
      "geometry": {
        "type": "Point",
        "coordinates": [
          -63.733,
          -32.426
        ]
      },
      "properties": {
        "kind": "hot_zone",
        "company": "Hernando RP6 / agroindustria",
        "name": "Hernando RP6 / agroindustria",
        "corridor": "Villa María / RP6",
        "city": "Hernando",
        "priority": "HOT",
        "sector": "Zona caliente",
        "phone": "",
        "fit": "La Vencedora, Metal-Her y agroservicios. Enfoque: silos, implementos, acopios.",
        "hook": "Trabajar como bloque de visitas",
        "source": "Definición estratégica PRESOL 2026-09",
        "radius_m": 3000,
        "geocode_quality": "manual-zone"
      }
    },
    {
      "type": "Feature",
      "geometry": {
        "type": "Point",
        "coordinates": [
          -64.205,
          -31.47
        ]
      },
      "properties": {
        "kind": "hot_zone",
        "company": "Córdoba Sur / Vélez Sarsfield-RN36",
        "name": "Córdoba Sur / Vélez Sarsfield-RN36",
        "corridor": "Córdoba / RN36 norte",
        "city": "Córdoba capital zona sur",
        "priority": "HOT",
        "sector": "Zona caliente",
        "phone": "",
        "fit": "Hormi Block, Canteras Ruiz, Porta, corralones y acceso por RN36 sin meterse al centro.",
        "hook": "Trabajar como bloque de visitas",
        "source": "Definición estratégica PRESOL 2026-09",
        "radius_m": 6500,
        "geocode_quality": "manual-zone"
      }
    },
    {
      "type": "Feature",
      "geometry": {
        "type": "Point",
        "coordinates": [
          -64.235,
          -31.382
        ]
      },
      "properties": {
        "kind": "hot_zone",
        "company": "Córdoba Oeste-Norte / módulos y corralones",
        "name": "Córdoba Oeste-Norte / módulos y corralones",
        "corridor": "Córdoba / RN36 norte",
        "city": "Córdoba capital",
        "priority": "HOT",
        "sector": "Zona caliente",
        "phone": "",
        "fit": "Mis Ladrillos, MegaContainers y Lucy’s House no caen todos en zona sur; trabajarlos como subruta aparte.",
        "hook": "Trabajar como bloque de visitas",
        "source": "Definición estratégica PRESOL 2026-09",
        "radius_m": 8500,
        "geocode_quality": "manual-zone"
      }
    },
    {
      "type": "Feature",
      "geometry": {
        "type": "Point",
        "coordinates": [
          -64.428,
          -31.653
        ]
      },
      "properties": {
        "kind": "hot_zone",
        "company": "Alta Gracia / parques y módulos",
        "name": "Alta Gracia / parques y módulos",
        "corridor": "Córdoba / RN36 norte",
        "city": "Alta Gracia",
        "priority": "HOT",
        "sector": "Zona caliente",
        "phone": "",
        "fit": "Premoldeados, viviendas industrializadas, parques en expansión.",
        "hook": "Trabajar como bloque de visitas",
        "source": "Definición estratégica PRESOL 2026-09",
        "radius_m": 5000,
        "geocode_quality": "manual-zone"
      }
    },
    {
      "type": "Feature",
      "geometry": {
        "type": "Point",
        "coordinates": [
          -64.358,
          -31.467
        ]
      },
      "properties": {
        "kind": "hot_zone",
        "company": "Malagueño / cal y áridos",
        "name": "Malagueño / cal y áridos",
        "corridor": "Córdoba / RN36 norte",
        "city": "Malagueño",
        "priority": "HOT",
        "sector": "Zona caliente",
        "phone": "",
        "fit": "Calidra, canteras/corralones y materiales. Entrada por mantenimiento/proveedores.",
        "hook": "Trabajar como bloque de visitas",
        "source": "Definición estratégica PRESOL 2026-09",
        "radius_m": 5000,
        "geocode_quality": "manual-zone"
      }
    },
    {
      "type": "Feature",
      "geometry": {
        "type": "Point",
        "coordinates": [
          -64.13,
          -31.455
        ]
      },
      "properties": {
        "kind": "hot_zone",
        "company": "Ferreyra / Santa Isabel industrial",
        "name": "Ferreyra / Santa Isabel industrial",
        "corridor": "Córdoba / RN36 norte",
        "city": "Ferreyra / Santa Isabel",
        "priority": "HOT",
        "sector": "Zona caliente",
        "phone": "",
        "fit": "Automotriz y proveedores. Prospecto largo; atacar por contratistas de montaje.",
        "hook": "Trabajar como bloque de visitas",
        "source": "Definición estratégica PRESOL 2026-09",
        "radius_m": 4500,
        "geocode_quality": "manual-zone"
      }
    },
    {
      "type": "Feature",
      "geometry": {
        "type": "LineString",
        "coordinates": [
          [
            -64.114,
            -32.173
          ]
        ]
      },
      "properties": {
        "kind": "route",
        "name": "Base local Río Tercero",
        "corridor": "Base Río Tercero"
      }
    },
    {
      "type": "Feature",
      "geometry": {
        "type": "LineString",
        "coordinates": [
          [
            -64.114,
            -32.173
          ],
          [
            -64.191,
            -32.0225
          ],
          [
            -64.388,
            -32.452
          ],
          [
            -64.393,
            -32.573
          ],
          [
            -64.336,
            -32.757
          ],
          [
            -64.3493,
            -33.1232
          ],
          [
            -64.288,
            -33.093
          ]
        ]
      },
      "properties": {
        "kind": "route",
        "name": "RN36 Sur — Río Cuarto",
        "corridor": "Río Cuarto / RN36 sur"
      }
    },
    {
      "type": "Feature",
      "geometry": {
        "type": "LineString",
        "coordinates": [
          [
            -64.114,
            -32.173
          ],
          [
            -63.733,
            -32.426
          ],
          [
            -63.356,
            -32.288
          ],
          [
            -63.24,
            -32.41
          ],
          [
            -63.247,
            -32.432
          ]
        ]
      },
      "properties": {
        "kind": "route",
        "name": "RP6/RN158 — Villa María",
        "corridor": "Villa María / RP6"
      }
    },
    {
      "type": "Feature",
      "geometry": {
        "type": "LineString",
        "coordinates": [
          [
            -64.114,
            -32.173
          ],
          [
            -64.255,
            -32.192
          ],
          [
            -64.294,
            -31.817
          ],
          [
            -64.428,
            -31.653
          ],
          [
            -64.358,
            -31.467
          ],
          [
            -64.205,
            -31.47
          ],
          [
            -64.13,
            -31.455
          ],
          [
            -64.1888,
            -31.4201
          ]
        ]
      },
      "properties": {
        "kind": "route",
        "name": "RN36 Norte — Córdoba",
        "corridor": "Córdoba / RN36 norte"
      }
    }
  ]
}